<?xml version="1.0" encoding="utf-8"?><gpx version="1.1" creator="MySchweizMobil - https://map.schweizmobil.ch/" xmlns:xsi="http://www.w3.org/2001/XMLSchema-instance" xmlns="http://www.topografix.com/GPX/1/1" xsi:schemaLocation="http://www.topografix.com/GPX/1/1 http://www.topografix.com/GPX/1/1/gpx.xsd"><metadata><name>strecke06</name><bounds minlat="47.37997302459553" minlon="8.455705071333796" maxlat="47.411860938649625" maxlon="8.511822352185845" /></metadata><trk><name>strecke06</name><trkseg><trkpt lat="47.37997302459553" lon="8.477416685316712"><ele>441.79998779296875</ele></trkpt><trkpt lat="47.38004150055349" lon="8.477504100184888"><ele>441.6999816894531</ele></trkpt><trkpt lat="47.38008952932432" lon="8.477564630098641"><ele>441.6999816894531</ele></trkpt><trkpt lat="47.38016997044906" lon="8.477621819358319"><ele>441.5999755859375</ele></trkpt><trkpt lat="47.38025131030008" lon="8.477679025847465"><ele>441.5999755859375</ele></trkpt><trkpt lat="47.380321030505" lon="8.47772806044668"><ele>441.5999755859375</ele></trkpt><trkpt lat="47.380410256329924" lon="8.477708611171693"><ele>441.79998779296875</ele></trkpt><trkpt lat="47.38049226393923" lon="8.477691669482738"><ele>442.3999938964844</ele></trkpt><trkpt lat="47.38054717704654" lon="8.477586794644594"><ele>443.1999816894531</ele></trkpt><trkpt lat="47.3805667120032" lon="8.47741501359269"><ele>443.8999938964844</ele></trkpt><trkpt lat="47.38055619923398" lon="8.47728370083496"><ele>444.6999816894531</ele></trkpt><trkpt lat="47.380542470142245" lon="8.477109947707504"><ele>445.6999816894531</ele></trkpt><trkpt lat="47.38061248138547" lon="8.477026555221528"><ele>446.1999816894531</ele></trkpt><trkpt lat="47.3806824805215" lon="8.476944486610591"><ele>446.1999816894531</ele></trkpt><trkpt lat="47.38075339095667" lon="8.476861111354083"><ele>446.0999755859375</ele></trkpt><trkpt lat="47.380852478556335" lon="8.476745176129043"><ele>446.0999755859375</ele></trkpt><trkpt lat="47.38085276912898" lon="8.476612749043852"><ele>446.29998779296875</ele></trkpt><trkpt lat="47.38085395889357" lon="8.476480339188129"><ele>446.1999816894531</ele></trkpt><trkpt lat="47.38085526693612" lon="8.476334688719362"><ele>446.29998779296875</ele></trkpt><trkpt lat="47.38088319869712" lon="8.47622928628698"><ele>446.5</ele></trkpt><trkpt lat="47.38094788463786" lon="8.476137842517346"><ele>446.5</ele></trkpt><trkpt lat="47.38101346977055" lon="8.47604641597718"><ele>446.5999755859375</ele></trkpt><trkpt lat="47.38107815571129" lon="8.475954971741885"><ele>446.6999816894531</ele></trkpt><trkpt lat="47.38114374084398" lon="8.475863544736058"><ele>446.79998779296875</ele></trkpt><trkpt lat="47.38120842631906" lon="8.475772100035101"><ele>446.8999938964844</ele></trkpt><trkpt lat="47.38127401145175" lon="8.475680672563612"><ele>447.0999755859375</ele></trkpt><trkpt lat="47.38133869692683" lon="8.475589227396995"><ele>447.3999938964844</ele></trkpt><trkpt lat="47.3813945078291" lon="8.475484366063029"><ele>447.8999938964844</ele></trkpt><trkpt lat="47.381475975271314" lon="8.475327029824257"><ele>448.29998779296875</ele></trkpt><trkpt lat="47.38149491278455" lon="8.475221450440586"><ele>448.3999938964844</ele></trkpt><trkpt lat="47.38145549967885" lon="8.475102817639709"><ele>448.8999938964844</ele></trkpt><trkpt lat="47.381399497855455" lon="8.474928239826113"><ele>449.79998779296875</ele></trkpt><trkpt lat="47.38137545622885" lon="8.474800636060536"><ele>450.6999816894531</ele></trkpt><trkpt lat="47.38135141460225" lon="8.474673031829298"><ele>451.3999938964844</ele></trkpt><trkpt lat="47.38132737297565" lon="8.47454542806372"><ele>452.0999755859375</ele></trkpt><trkpt lat="47.381303331349045" lon="8.474417824298143"><ele>452.8999938964844</ele></trkpt><trkpt lat="47.381287027616054" lon="8.474330101627856"><ele>453.6999816894531</ele></trkpt><trkpt lat="47.381324069574475" lon="8.474211630877107"><ele>454.3999938964844</ele></trkpt><trkpt lat="47.38140025548637" lon="8.47414159681648"><ele>454.5999755859375</ele></trkpt><trkpt lat="47.38147732894868" lon="8.47407290386036"><ele>454.5999755859375</ele></trkpt><trkpt lat="47.38159612799063" lon="8.473965291399509"><ele>454.5999755859375</ele></trkpt><trkpt lat="47.38165993662551" lon="8.473871177528054"><ele>454.79998779296875</ele></trkpt><trkpt lat="47.38172283396125" lon="8.473778370767832"><ele>455.0999755859375</ele></trkpt><trkpt lat="47.38178754178807" lon="8.473684274125844"><ele>455.5999755859375</ele></trkpt><trkpt lat="47.38185045076534" lon="8.47359014255926"><ele>456.0999755859375</ele></trkpt><trkpt lat="47.38190605817363" lon="8.473507788032293"><ele>456.3999938964844</ele></trkpt><trkpt lat="47.38196008000523" lon="8.473401564639062"><ele>456.6999816894531</ele></trkpt><trkpt lat="47.382013202644885" lon="8.47329532308504"><ele>456.8999938964844</ele></trkpt><trkpt lat="47.38209835952148" lon="8.473127458244562"><ele>457.29998779296875</ele></trkpt><trkpt lat="47.38213721103966" lon="8.473007695749402"><ele>457.79998779296875</ele></trkpt><trkpt lat="47.38217695010826" lon="8.47288927482441"><ele>458.1999816894531</ele></trkpt><trkpt lat="47.38222782453522" lon="8.472732663154602"><ele>458.5</ele></trkpt><trkpt lat="47.382287182845175" lon="8.472633162979037"><ele>458.79998779296875</ele></trkpt><trkpt lat="47.38234742823988" lon="8.472535004839301"><ele>459.0999755859375</ele></trkpt><trkpt lat="47.382406786084175" lon="8.472435504198074"><ele>459.29998779296875</ele></trkpt><trkpt lat="47.382465209346265" lon="8.472339958883822"><ele>459.5999755859375</ele></trkpt><trkpt lat="47.382517443504184" lon="8.472232373896986"><ele>459.8999938964844</ele></trkpt><trkpt lat="47.382569677662104" lon="8.47212478844449"><ele>460.29998779296875</ele></trkpt><trkpt lat="47.38262281101197" lon="8.472017220687121"><ele>460.5999755859375</ele></trkpt><trkpt lat="47.3826759676449" lon="8.47190700378269"><ele>460.8999938964844</ele></trkpt><trkpt lat="47.38272285275161" lon="8.47179401665926"><ele>461.1999816894531</ele></trkpt><trkpt lat="47.382771524600685" lon="8.471682388335466"><ele>461.5999755859375</ele></trkpt><trkpt lat="47.3828184097074" lon="8.471569401212037"><ele>462.0</ele></trkpt><trkpt lat="47.38286529434845" lon="8.471456413157284"><ele>462.3999938964844</ele></trkpt><trkpt lat="47.38289744639769" lon="8.471381546929479"><ele>462.79998779296875</ele></trkpt><trkpt lat="47.38292645057663" lon="8.471256292890757"><ele>463.29998779296875</ele></trkpt><trkpt lat="47.38295545428991" lon="8.471131038852036"><ele>463.79998779296875</ele></trkpt><trkpt lat="47.3829853576608" lon="8.471005802508444"><ele>464.29998779296875</ele></trkpt><trkpt lat="47.38301434973255" lon="8.470881872344762"><ele>464.79998779296875</ele></trkpt><trkpt lat="47.383044252637774" lon="8.470756635069847"><ele>465.0999755859375</ele></trkpt><trkpt lat="47.383074155543" lon="8.470631398260593"><ele>465.3999938964844</ele></trkpt><trkpt lat="47.38309286395088" lon="8.47055097296834"><ele>465.5999755859375</ele></trkpt><trkpt lat="47.383133499417454" lon="8.470432565547526"><ele>465.8999938964844</ele></trkpt><trkpt lat="47.383173235692084" lon="8.470314139965922"><ele>466.0999755859375</ele></trkpt><trkpt lat="47.38321297150105" lon="8.470195714384317"><ele>466.3999938964844</ele></trkpt><trkpt lat="47.38325985474512" lon="8.470082724932581"><ele>466.5999755859375</ele></trkpt><trkpt lat="47.38330673798919" lon="8.469969735015184"><ele>466.79998779296875</ele></trkpt><trkpt lat="47.3833545204252" lon="8.469856761861593"><ele>466.8999938964844</ele></trkpt><trkpt lat="47.38340140366927" lon="8.469743771478534"><ele>467.0</ele></trkpt><trkpt lat="47.38344738725573" lon="8.469630763866007"><ele>467.29998779296875</ele></trkpt><trkpt lat="47.383494270034134" lon="8.469517773017287"><ele>467.5</ele></trkpt><trkpt lat="47.383542052004486" lon="8.469404799398035"><ele>467.6999816894531</ele></trkpt><trkpt lat="47.38358893431723" lon="8.469291808083653"><ele>467.6999816894531</ele></trkpt><trkpt lat="47.38363581709564" lon="8.469178816769272"><ele>467.79998779296875</ele></trkpt><trkpt lat="47.38368269940838" lon="8.46906582498923"><ele>468.0</ele></trkpt><trkpt lat="47.38373048091307" lon="8.468952850904316"><ele>468.0999755859375</ele></trkpt><trkpt lat="47.38377646356821" lon="8.468839841429144"><ele>468.1999816894531</ele></trkpt><trkpt lat="47.383823345415294" lon="8.46872684918344"><ele>468.1999816894531</ele></trkpt><trkpt lat="47.38387022772804" lon="8.468613856937736"><ele>468.1999816894531</ele></trkpt><trkpt lat="47.38391710910946" lon="8.468500864226371"><ele>468.0999755859375</ele></trkpt><trkpt lat="47.383966736029834" lon="8.468382626771927"><ele>467.8999938964844</ele></trkpt><trkpt lat="47.38403852796182" lon="8.46830057632178"><ele>467.5999755859375</ele></trkpt><trkpt lat="47.3841094202362" lon="8.468218508176506"><ele>467.0999755859375</ele></trkpt><trkpt lat="47.38417941285297" lon="8.468136422336102"><ele>466.5999755859375</ele></trkpt><trkpt lat="47.38424939382821" lon="8.468055660836399"><ele>466.0999755859375</ele></trkpt><trkpt lat="47.38432028610259" lon="8.467973592225462"><ele>465.6999816894531</ele></trkpt><trkpt lat="47.38439391134307" lon="8.467887602746487"><ele>465.3999938964844</ele></trkpt><trkpt lat="47.38445592811331" lon="8.467792117968202"><ele>465.1999816894531</ele></trkpt><trkpt lat="47.3845188440755" lon="8.467696650419384"><ele>465.0</ele></trkpt><trkpt lat="47.3845188440755" lon="8.467696650419384"><ele>465.0</ele></trkpt><trkpt lat="47.38458086038008" lon="8.467601165175438"><ele>464.79998779296875</ele></trkpt><trkpt lat="47.38464377587661" lon="8.46750569716096"><ele>464.5999755859375</ele></trkpt><trkpt lat="47.38470578053966" lon="8.467411535792053"><ele>464.29998779296875</ele></trkpt><trkpt lat="47.38476869557053" lon="8.467316067311913"><ele>464.0999755859375</ele></trkpt><trkpt lat="47.38483071187511" lon="8.467220581136644"><ele>463.6999816894531</ele></trkpt><trkpt lat="47.384894526563585" lon="8.46712512942031"><ele>463.0</ele></trkpt><trkpt lat="47.384959287475795" lon="8.467024398036301"><ele>462.0999755859375</ele></trkpt><trkpt lat="47.38504594238475" lon="8.466990310698748"><ele>460.8999938964844</ele></trkpt><trkpt lat="47.38512175856158" lon="8.46696131164208"><ele>460.29998779296875</ele></trkpt><trkpt lat="47.385104950051755" lon="8.466828544158489"><ele>460.29998779296875</ele></trkpt><trkpt lat="47.38512629037723" lon="8.466957425698638"><ele>459.8999938964844</ele></trkpt><trkpt lat="47.385147677734494" lon="8.467081010341644"><ele>459.0</ele></trkpt><trkpt lat="47.38519978383556" lon="8.467189294751734"><ele>457.8999938964844</ele></trkpt><trkpt lat="47.38527134573087" lon="8.46733503928408"><ele>456.5999755859375</ele></trkpt><trkpt lat="47.385349011048675" lon="8.467401435598731"><ele>455.5</ele></trkpt><trkpt lat="47.38542667590082" lon="8.467467832379043"><ele>454.5</ele></trkpt><trkpt lat="47.38550432911143" lon="8.467535553034395"><ele>453.3999938964844</ele></trkpt><trkpt lat="47.38558199396357" lon="8.467601950280368"><ele>452.29998779296875</ele></trkpt><trkpt lat="47.38568197749555" lon="8.467687320429832"><ele>451.29998779296875</ele></trkpt><trkpt lat="47.385739526711404" lon="8.467790414113551"><ele>450.5999755859375</ele></trkpt><trkpt lat="47.38579437788576" lon="8.467893456108868"><ele>450.0999755859375</ele></trkpt><trkpt lat="47.38585013989359" lon="8.467995190992951"><ele>449.6999816894531</ele></trkpt><trkpt lat="47.38591380184516" lon="8.467916953377426"><ele>449.1999816894531</ele></trkpt><trkpt lat="47.38594548823312" lon="8.467793066520244"><ele>448.79998779296875</ele></trkpt><trkpt lat="47.385977174621075" lon="8.467669180128723"><ele>448.5</ele></trkpt><trkpt lat="47.386007961351424" lon="8.467545275576413"><ele>448.1999816894531</ele></trkpt><trkpt lat="47.38604055857286" lon="8.467420081607997"><ele>448.0</ele></trkpt><trkpt lat="47.38607134530321" lon="8.467296177055687"><ele>447.79998779296875</ele></trkpt><trkpt lat="47.3861030312255" lon="8.467172289732844"><ele>447.6999816894531</ele></trkpt><trkpt lat="47.38613381749019" lon="8.467048384714872"><ele>447.5999755859375</ele></trkpt><trkpt lat="47.38616640213877" lon="8.466924514621496"><ele>447.5999755859375</ele></trkpt><trkpt lat="47.38619718840346" lon="8.466800609603524"><ele>447.5</ele></trkpt><trkpt lat="47.38622887386009" lon="8.466676721349359"><ele>447.5</ele></trkpt><trkpt lat="47.38626055885106" lon="8.466552833560854"><ele>447.5999755859375</ele></trkpt><trkpt lat="47.38629135675728" lon="8.46642760373652"><ele>447.6999816894531</ele></trkpt><trkpt lat="47.386323041282594" lon="8.466303715482354"><ele>447.6999816894531</ele></trkpt><trkpt lat="47.38635193416849" lon="8.46619036886841"><ele>447.5</ele></trkpt><trkpt lat="47.38640148798004" lon="8.46608006907627"><ele>447.1999816894531</ele></trkpt><trkpt lat="47.38645104132593" lon="8.46596976928413"><ele>447.0</ele></trkpt><trkpt lat="47.38650149432942" lon="8.465859486721456"><ele>446.79998779296875</ele></trkpt><trkpt lat="47.38655104767531" lon="8.465749186463654"><ele>446.5999755859375</ele></trkpt><trkpt lat="47.386618041899055" lon="8.465599488466978"><ele>446.29998779296875</ele></trkpt><trkpt lat="47.38667473103851" lon="8.465495947282761"><ele>446.0</ele></trkpt><trkpt lat="47.38673140807077" lon="8.465393730439246"><ele>445.6999816894531</ele></trkpt><trkpt lat="47.38678809721023" lon="8.465290189255029"><ele>445.5</ele></trkpt><trkpt lat="47.386843875050545" lon="8.465187954716384"><ele>445.3999938964844</ele></trkpt><trkpt lat="47.386901462916285" lon="8.465084430761635"><ele>445.1999816894531</ele></trkpt><trkpt lat="47.38695632945746" lon="8.464983502402902"><ele>445.0999755859375</ele></trkpt><trkpt lat="47.387001420836896" lon="8.464869141113013"><ele>445.0999755859375</ele></trkpt><trkpt lat="47.387047411408275" lon="8.464754797052592"><ele>445.0</ele></trkpt><trkpt lat="47.387093401513994" lon="8.464640452992171"><ele>444.8999938964844</ele></trkpt><trkpt lat="47.387138492427766" lon="8.464526091236621"><ele>444.8999938964844</ele></trkpt><trkpt lat="47.38718634005636" lon="8.464405159465969"><ele>444.8999938964844</ele></trkpt><trkpt lat="47.38720727758482" lon="8.464275763370097"><ele>444.8999938964844</ele></trkpt><trkpt lat="47.38722820347175" lon="8.464147691149265"><ele>445.0999755859375</ele></trkpt><trkpt lat="47.38724914100021" lon="8.464018294587731"><ele>445.5</ele></trkpt><trkpt lat="47.38727006642148" lon="8.4638902223669"><ele>445.8999938964844</ele></trkpt><trkpt lat="47.387291902676225" lon="8.463760843034834"><ele>446.29998779296875</ele></trkpt><trkpt lat="47.38731282809749" lon="8.46363277034834"><ele>446.3999938964844</ele></trkpt><trkpt lat="47.38733376469463" lon="8.463503373321146"><ele>446.3999938964844</ele></trkpt><trkpt lat="47.3873480418697" lon="8.463414906989783"><ele>446.5</ele></trkpt><trkpt lat="47.387394031044096" lon="8.463300561066717"><ele>446.5</ele></trkpt><trkpt lat="47.387439120560884" lon="8.463186197448522"><ele>446.5</ele></trkpt><trkpt lat="47.38748509762809" lon="8.463073175400496"><ele>446.5999755859375</ele></trkpt><trkpt lat="47.387530186679214" lon="8.46295881131664"><ele>446.5</ele></trkpt><trkpt lat="47.387568816076964" lon="8.462862865999341"><ele>446.3999938964844</ele></trkpt><trkpt lat="47.387652025558054" lon="8.46281148539856"><ele>446.0999755859375</ele></trkpt><trkpt lat="47.38771443255246" lon="8.46277294959873"><ele>446.0999755859375</ele></trkpt><trkpt lat="47.38772728620097" lon="8.462642071768641"><ele>446.5</ele></trkpt><trkpt lat="47.38774103857577" lon="8.46251121070236"><ele>447.29998779296875</ele></trkpt><trkpt lat="47.38775389222428" lon="8.462380332872272"><ele>448.0999755859375</ele></trkpt><trkpt lat="47.38776272535324" lon="8.462297059129924"><ele>448.79998779296875</ele></trkpt><trkpt lat="47.38780245324597" lon="8.462178617715836"><ele>449.5999755859375</ele></trkpt><trkpt lat="47.38784308033064" lon="8.462060193531215"><ele>450.5</ele></trkpt><trkpt lat="47.38787447940558" lon="8.461968081537634"><ele>451.3999938964844</ele></trkpt><trkpt lat="47.387942692730576" lon="8.461883299052715"><ele>452.1999816894531</ele></trkpt><trkpt lat="47.38801180571318" lon="8.461798533331603"><ele>453.29998779296875</ele></trkpt><trkpt lat="47.388080906588584" lon="8.461715091951191"><ele>454.5999755859375</ele></trkpt><trkpt lat="47.38815091829747" lon="8.461630343459547"><ele>456.0</ele></trkpt><trkpt lat="47.38822003128007" lon="8.461545577272773"><ele>457.29998779296875</ele></trkpt><trkpt lat="47.38830096414313" lon="8.461446468252689"><ele>458.5999755859375</ele></trkpt><trkpt lat="47.388352300506085" lon="8.461337519343942"><ele>459.6999816894531</ele></trkpt><trkpt lat="47.38840453606099" lon="8.461228587199003"><ele>460.5999755859375</ele></trkpt><trkpt lat="47.388454973232" lon="8.461119620595127"><ele>461.6999816894531</ele></trkpt><trkpt lat="47.3885063091293" lon="8.46101067122072"><ele>462.8999938964844</ele></trkpt><trkpt lat="47.38854847615585" lon="8.460921413265169"><ele>463.6999816894531</ele></trkpt><trkpt lat="47.38863899651915" lon="8.46085692383349"><ele>464.0</ele></trkpt><trkpt lat="47.38872819580138" lon="8.460840091574937"><ele>464.1999816894531</ele></trkpt><trkpt lat="47.388817395083606" lon="8.460823259316385"><ele>464.3999938964844</ele></trkpt><trkpt lat="47.38890748191625" lon="8.46080776816234"><ele>464.5</ele></trkpt><trkpt lat="47.388963346835226" lon="8.460796919185668"><ele>464.5</ele></trkpt><trkpt lat="47.38904475653544" lon="8.46074549946934"><ele>464.3999938964844</ele></trkpt><trkpt lat="47.38911828259006" lon="8.460670087020844"><ele>464.29998779296875</ele></trkpt><trkpt lat="47.38919270830229" lon="8.460594691336155"><ele>464.0999755859375</ele></trkpt><trkpt lat="47.38926623435691" lon="8.460519278421998"><ele>463.79998779296875</ele></trkpt><trkpt lat="47.38933976087719" lon="8.46044386504218"><ele>463.5</ele></trkpt><trkpt lat="47.38941419776529" lon="8.460367144551128"><ele>463.0999755859375</ele></trkpt><trkpt lat="47.38948772381991" lon="8.46029173117131"><ele>462.5999755859375</ele></trkpt><trkpt lat="47.38955307379365" lon="8.460225432179868"><ele>462.0</ele></trkpt><trkpt lat="47.38963536825031" lon="8.460277342237532"><ele>461.0</ele></trkpt><trkpt lat="47.389719461556524" lon="8.460329287219793"><ele>459.6999816894531</ele></trkpt><trkpt lat="47.389719461556524" lon="8.460329287219793"><ele>459.6999816894531</ele></trkpt><trkpt lat="47.38980085682124" lon="8.460381180047989"><ele>458.3999938964844</ele></trkpt><trkpt lat="47.389884050469846" lon="8.460433107800782"><ele>457.3999938964844</ele></trkpt><trkpt lat="47.389966333284974" lon="8.46048634313047"><ele>456.5</ele></trkpt><trkpt lat="47.39005042659119" lon="8.460538288578391"><ele>455.5999755859375</ele></trkpt><trkpt lat="47.3901318218559" lon="8.46059018233791"><ele>454.6999816894531</ele></trkpt><trkpt lat="47.39021501550451" lon="8.460642110556364"><ele>454.0</ele></trkpt><trkpt lat="47.39029730996117" lon="8.460694022476673"><ele>453.5</ele></trkpt><trkpt lat="47.390381403267384" lon="8.460745968390256"><ele>453.0999755859375</ele></trkpt><trkpt lat="47.3904627985321" lon="8.460797863081098"><ele>452.8999938964844</ele></trkpt><trkpt lat="47.39054509298876" lon="8.460849775001407"><ele>452.79998779296875</ele></trkpt><trkpt lat="47.39062828710303" lon="8.460901704616845"><ele>452.79998779296875</ele></trkpt><trkpt lat="47.390711480751634" lon="8.460953634232283"><ele>452.79998779296875</ele></trkpt><trkpt lat="47.39079376356676" lon="8.461006870958954"><ele>452.8999938964844</ele></trkpt><trkpt lat="47.39087605802342" lon="8.461058783810586"><ele>453.0999755859375</ele></trkpt><trkpt lat="47.39095925213769" lon="8.461110713891685"><ele>453.29998779296875</ele></trkpt><trkpt lat="47.39102902589366" lon="8.461154439020902"><ele>453.3999938964844</ele></trkpt><trkpt lat="47.39113683020696" lon="8.461169753689319"><ele>453.3999938964844</ele></trkpt><trkpt lat="47.39118995284662" lon="8.461062157060951"><ele>453.3999938964844</ele></trkpt><trkpt lat="47.39124306384474" lon="8.460955884773284"><ele>453.29998779296875</ele></trkpt><trkpt lat="47.391293429769576" lon="8.460854858160019"><ele>452.79998779296875</ele></trkpt><trkpt lat="47.39137747883797" lon="8.460810109507293"><ele>452.0999755859375</ele></trkpt><trkpt lat="47.391437128186226" lon="8.460778139065951"><ele>451.3999938964844</ele></trkpt><trkpt lat="47.39152314886451" lon="8.460815553087741"><ele>450.6999816894531</ele></trkpt><trkpt lat="47.3916100692004" lon="8.460852983873338"><ele>450.0</ele></trkpt><trkpt lat="47.39169610152021" lon="8.460889073554426"><ele>449.3999938964844</ele></trkpt><trkpt lat="47.39178212219849" lon="8.460926488041878"><ele>448.79998779296875</ele></trkpt><trkpt lat="47.39186904206872" lon="8.460963919758797"><ele>448.1999816894531</ele></trkpt><trkpt lat="47.39192101638764" lon="8.460986110381782"><ele>447.6999816894531</ele></trkpt><trkpt lat="47.39190278016031" lon="8.461115571204573"><ele>447.0</ele></trkpt><trkpt lat="47.39188544359058" lon="8.46124504879117"><ele>446.1999816894531</ele></trkpt><trkpt lat="47.391867195256054" lon="8.461375833954662"><ele>445.5</ele></trkpt><trkpt lat="47.39184895902872" lon="8.461505294311792"><ele>444.8999938964844</ele></trkpt><trkpt lat="47.391830722335726" lon="8.461634754668921"><ele>444.5</ele></trkpt><trkpt lat="47.39181248564273" lon="8.461764215491712"><ele>444.29998779296875</ele></trkpt><trkpt lat="47.391796129755676" lon="8.461884439457208"><ele>444.0999755859375</ele></trkpt><trkpt lat="47.39179405756295" lon="8.46201685955748"><ele>444.0999755859375</ele></trkpt><trkpt lat="47.39179198537022" lon="8.46214927919209"><ele>444.0</ele></trkpt><trkpt lat="47.39178991271183" lon="8.462281699292362"><ele>444.0999755859375</ele></trkpt><trkpt lat="47.39178784005344" lon="8.462414119392633"><ele>444.0999755859375</ele></trkpt><trkpt lat="47.39178576739505" lon="8.462546539027244"><ele>444.29998779296875</ele></trkpt><trkpt lat="47.391782795544714" lon="8.462678941898048"><ele>444.5</ele></trkpt><trkpt lat="47.39178072242066" lon="8.462811361532658"><ele>444.6999816894531</ele></trkpt><trkpt lat="47.39177954848856" lon="8.462943798862398"><ele>445.0999755859375</ele></trkpt><trkpt lat="47.39177634101361" lon="8.463102689012885"><ele>445.5999755859375</ele></trkpt><trkpt lat="47.39179407665506" lon="8.463232840411365"><ele>446.0</ele></trkpt><trkpt lat="47.39181182393804" lon="8.463361667934805"><ele>446.29998779296875</ele></trkpt><trkpt lat="47.391830458305776" lon="8.463491836562753"><ele>446.29998779296875</ele></trkpt><trkpt lat="47.391848193481565" lon="8.463621988426894"><ele>446.1999816894531</ele></trkpt><trkpt lat="47.39186087297276" lon="8.463713629636914"><ele>445.6999816894531</ele></trkpt><trkpt lat="47.3918984872289" lon="8.463833567220718"><ele>445.0</ele></trkpt><trkpt lat="47.39194048056379" lon="8.463966834824532"><ele>444.1999816894531</ele></trkpt><trkpt lat="47.39201815938577" lon="8.464031910523772"><ele>443.6999816894531</ele></trkpt><trkpt lat="47.39209674904123" lon="8.464095679111779"><ele>443.1999816894531</ele></trkpt><trkpt lat="47.392175327055156" lon="8.464160772506148"><ele>442.6999816894531</ele></trkpt><trkpt lat="47.39226998761296" lon="8.464238096959889"><ele>442.1999816894531</ele></trkpt><trkpt lat="47.39234306337312" lon="8.464315006043762"><ele>441.79998779296875</ele></trkpt><trkpt lat="47.392416139598936" lon="8.464391915593296"><ele>441.29998779296875</ele></trkpt><trkpt lat="47.39248920371756" lon="8.464470149483532"><ele>440.79998779296875</ele></trkpt><trkpt lat="47.392564066685736" lon="8.464548418298364"><ele>440.0999755859375</ele></trkpt><trkpt lat="47.392644490115345" lon="8.464608249720186"><ele>439.3999938964844</ele></trkpt><trkpt lat="47.392724925186485" lon="8.464666757266968"><ele>438.5999755859375</ele></trkpt><trkpt lat="47.39280534861609" lon="8.464726589154452"><ele>437.6999816894531</ele></trkpt><trkpt lat="47.392885783687234" lon="8.464785096235573"><ele>436.3999938964844</ele></trkpt><trkpt lat="47.39296620665118" lon="8.464844928588718"><ele>435.0999755859375</ele></trkpt><trkpt lat="47.39304754091427" lon="8.46490345383063"><ele>433.6999816894531</ele></trkpt><trkpt lat="47.39312706468627" lon="8.464963268954307"><ele>432.1999816894531</ele></trkpt><trkpt lat="47.39320749929175" lon="8.46502177696675"><ele>430.5999755859375</ele></trkpt><trkpt lat="47.393287922255695" lon="8.465081609785557"><ele>429.0999755859375</ele></trkpt><trkpt lat="47.393359422683716" lon="8.465133322868496"><ele>427.79998779296875</ele></trkpt><trkpt lat="47.39344732277095" lon="8.465161508880556"><ele>426.5999755859375</ele></trkpt><trkpt lat="47.393535210751" lon="8.465191019233316"><ele>425.5</ele></trkpt><trkpt lat="47.393623111303896" lon="8.465219205245376"><ele>424.5</ele></trkpt><trkpt lat="47.39371099928394" lon="8.465248716063797"><ele>423.5</ele></trkpt><trkpt lat="47.39379800017923" lon="8.46527688484639"><ele>422.6999816894531</ele></trkpt><trkpt lat="47.393885888624936" lon="8.465306396130472"><ele>422.0999755859375</ele></trkpt><trkpt lat="47.393973788712174" lon="8.465334582608193"><ele>421.5</ele></trkpt><trkpt lat="47.39406167715788" lon="8.465364093426615"><ele>421.0</ele></trkpt><trkpt lat="47.39413073845208" lon="8.465386618860066"><ele>420.29998779296875</ele></trkpt><trkpt lat="47.39425676362589" lon="8.465375800151378"><ele>419.3999938964844</ele></trkpt><trkpt lat="47.39433029294014" lon="8.46530038677156"><ele>418.3999938964844</ele></trkpt><trkpt lat="47.39440473308787" lon="8.465223665814847"><ele>417.1999816894531</ele></trkpt><trkpt lat="47.394478261936456" lon="8.465148251503706"><ele>415.8999938964844</ele></trkpt><trkpt lat="47.394551790785044" lon="8.465072837192565"><ele>414.29998779296875</ele></trkpt><trkpt lat="47.39462531916797" lon="8.464997422415763"><ele>412.6999816894531</ele></trkpt><trkpt lat="47.3946997593157" lon="8.464920700527728"><ele>411.0</ele></trkpt><trkpt lat="47.394801426213235" lon="8.464816684834659"><ele>410.5</ele></trkpt><trkpt lat="47.39489129045978" lon="8.464826363604516"><ele>411.6999816894531</ele></trkpt><trkpt lat="47.394981142133474" lon="8.464837366715074"><ele>410.5999755859375</ele></trkpt><trkpt lat="47.39507998665795" lon="8.464848542120308"><ele>406.6999816894531</ele></trkpt><trkpt lat="47.395148494746536" lon="8.464933316223323"><ele>404.1999816894531</ele></trkpt><trkpt lat="47.39521789038554" lon="8.465019432362169"><ele>403.0999755859375</ele></trkpt><trkpt lat="47.39528639847413" lon="8.465104206930846"><ele>402.0</ele></trkpt><trkpt lat="47.39535489445552" lon="8.465190306305885"><ele>401.0999755859375</ele></trkpt><trkpt lat="47.39542430173606" lon="8.465275098569691"><ele>400.0999755859375</ele></trkpt><trkpt lat="47.39552483288571" lon="8.465400231536478"><ele>399.0999755859375</ele></trkpt><trkpt lat="47.39559974242002" lon="8.46547320857644"><ele>398.29998779296875</ele></trkpt><trkpt lat="47.395675539039075" lon="8.465547527186573"><ele>397.8999938964844</ele></trkpt><trkpt lat="47.39575044810772" lon="8.465620504692197"><ele>397.5</ele></trkpt><trkpt lat="47.395824446342885" lon="8.465694788843393"><ele>397.1999816894531</ele></trkpt><trkpt lat="47.39589845575392" lon="8.465767749585211"><ele>397.0</ele></trkpt><trkpt lat="47.39589845575392" lon="8.465767749585211"><ele>397.0</ele></trkpt><trkpt lat="47.395973353181034" lon="8.465842051897198"><ele>396.6999816894531</ele></trkpt><trkpt lat="47.39604826224968" lon="8.465915029868484"><ele>396.5</ele></trkpt><trkpt lat="47.39612315921113" lon="8.465989332646132"><ele>396.29998779296875</ele></trkpt><trkpt lat="47.39621144067496" lon="8.466075816191733"><ele>396.0999755859375</ele></trkpt><trkpt lat="47.3961381977424" lon="8.46622012136504"><ele>396.0</ele></trkpt><trkpt lat="47.39625405240804" lon="8.466341579332948"><ele>395.8999938964844</ele></trkpt><trkpt lat="47.396227307617664" lon="8.4663145695813"><ele>395.8999938964844</ele></trkpt><trkpt lat="47.39627329958603" lon="8.466200206894428"><ele>395.8999938964844</ele></trkpt><trkpt lat="47.39631839143112" lon="8.466085826512426"><ele>395.8999938964844</ele></trkpt><trkpt lat="47.39636437129229" lon="8.465972788166255"><ele>395.8999938964844</ele></trkpt><trkpt lat="47.396410362794995" lon="8.46585842454806"><ele>396.0</ele></trkpt><trkpt lat="47.3964563542977" lon="8.465744061395526"><ele>396.0</ele></trkpt><trkpt lat="47.39650144614279" lon="8.465629680082202"><ele>396.0</ele></trkpt><trkpt lat="47.3965474255383" lon="8.465516640804708"><ele>396.0</ele></trkpt><trkpt lat="47.39659341610968" lon="8.465402276720852"><ele>395.8999938964844</ele></trkpt><trkpt lat="47.396660550963134" lon="8.465236655902117"><ele>395.8999938964844</ele></trkpt><trkpt lat="47.396694908849895" lon="8.46511544380337"><ele>396.0</ele></trkpt><trkpt lat="47.396730178035796" lon="8.464992924127728"><ele>395.8999938964844</ele></trkpt><trkpt lat="47.3967709839344" lon="8.464854614343494"><ele>395.8999938964844</ele></trkpt><trkpt lat="47.396795495878905" lon="8.464727913029492"><ele>395.8999938964844</ele></trkpt><trkpt lat="47.396820918656886" lon="8.464599904604256"><ele>396.0</ele></trkpt><trkpt lat="47.39684543060139" lon="8.464473203290254"><ele>396.0</ele></trkpt><trkpt lat="47.39687085291371" lon="8.464345194399357"><ele>396.0</ele></trkpt><trkpt lat="47.39689536439255" lon="8.464218492619693"><ele>396.0</ele></trkpt><trkpt lat="47.39691988751292" lon="8.464090466499329"><ele>395.8999938964844</ele></trkpt><trkpt lat="47.39694529771805" lon="8.463963781949133"><ele>395.79998779296875</ele></trkpt><trkpt lat="47.39696982037276" lon="8.463835755363107"><ele>395.6999816894531</ele></trkpt><trkpt lat="47.396995230577886" lon="8.46370907034725"><ele>395.5999755859375</ele></trkpt><trkpt lat="47.3970197532326" lon="8.463581043295562"><ele>395.3999938964844</ele></trkpt><trkpt lat="47.397044263314456" lon="8.463454341050237"><ele>395.3999938964844</ele></trkpt><trkpt lat="47.39706967305392" lon="8.46332765603438"><ele>395.3999938964844</ele></trkpt><trkpt lat="47.39709419524297" lon="8.463199628517032"><ele>395.29998779296875</ele></trkpt><trkpt lat="47.39712050417438" lon="8.463072960730642"><ele>395.29998779296875</ele></trkpt><trkpt lat="47.397144126240164" lon="8.462944915983826"><ele>395.1999816894531</ele></trkpt><trkpt lat="47.39716953551397" lon="8.462818230036646"><ele>395.1999816894531</ele></trkpt><trkpt lat="47.397194056771696" lon="8.462690202519298"><ele>395.0999755859375</ele></trkpt><trkpt lat="47.3972326903604" lon="8.462492235004902"><ele>395.0</ele></trkpt><trkpt lat="47.3972437446937" lon="8.462361298967153"><ele>394.8999938964844</ele></trkpt><trkpt lat="47.39725481066853" lon="8.462229038123041"><ele>394.8999938964844</ele></trkpt><trkpt lat="47.39726283820346" lon="8.462135136593133"><ele>394.79998779296875</ele></trkpt><trkpt lat="47.39728645933792" lon="8.462007090914994"><ele>395.0</ele></trkpt><trkpt lat="47.397309181280434" lon="8.461879028007388"><ele>395.3999938964844</ele></trkpt><trkpt lat="47.397332802414894" lon="8.46175098279491"><ele>395.3999938964844</ele></trkpt><trkpt lat="47.397356423549354" lon="8.46162293665111"><ele>395.0999755859375</ele></trkpt><trkpt lat="47.39737627096474" lon="8.461514689493924"><ele>394.8999938964844</ele></trkpt><trkpt lat="47.397412423510104" lon="8.46139350766316"><ele>394.8999938964844</ele></trkpt><trkpt lat="47.397449475713074" lon="8.461272343061864"><ele>394.79998779296875</ele></trkpt><trkpt lat="47.39748652745038" lon="8.461151177994907"><ele>394.79998779296875</ele></trkpt><trkpt lat="47.397522679995745" lon="8.461029996164143"><ele>394.79998779296875</ele></trkpt><trkpt lat="47.39755883254111" lon="8.460908813402057"><ele>394.6999816894531</ele></trkpt><trkpt lat="47.39759867545217" lon="8.46077710390091"><ele>394.6999816894531</ele></trkpt><trkpt lat="47.397681892849505" lon="8.460826390888542"><ele>394.8999938964844</ele></trkpt><trkpt lat="47.397766021080315" lon="8.460874371230602"><ele>395.0999755859375</ele></trkpt><trkpt lat="47.397849238011986" lon="8.460923658683896"><ele>395.3999938964844</ele></trkpt><trkpt lat="47.397933354601264" lon="8.460972963832319"><ele>395.6999816894531</ele></trkpt><trkpt lat="47.398017482832074" lon="8.461020944174379"><ele>395.79998779296875</ele></trkpt><trkpt lat="47.398100699763745" lon="8.461070232093334"><ele>395.6999816894531</ele></trkpt><trkpt lat="47.39818392880261" lon="8.461118195671588"><ele>395.5</ele></trkpt><trkpt lat="47.39826714573428" lon="8.461167484056205"><ele>395.3999938964844</ele></trkpt><trkpt lat="47.3983512618579" lon="8.461216789670289"><ele>395.0</ele></trkpt><trkpt lat="47.3984344904311" lon="8.461264753248543"><ele>394.3999938964844</ele></trkpt><trkpt lat="47.39851950574666" lon="8.461314076557755"><ele>394.0</ele></trkpt><trkpt lat="47.39860182348639" lon="8.461363348178566"><ele>393.8999938964844</ele></trkpt><trkpt lat="47.39868595125154" lon="8.46141132991761"><ele>393.8999938964844</ele></trkpt><trkpt lat="47.39876916818321" lon="8.461460619233549"><ele>393.8999938964844</ele></trkpt><trkpt lat="47.398853284306824" lon="8.461509925778955"><ele>393.8999938964844</ele></trkpt><trkpt lat="47.39893741207197" lon="8.46155790798366"><ele>393.79998779296875</ele></trkpt><trkpt lat="47.3990197298117" lon="8.461607180070132"><ele>393.5</ele></trkpt><trkpt lat="47.39910385757685" lon="8.461655162740499"><ele>393.3999938964844</ele></trkpt><trkpt lat="47.39918707404286" lon="8.461704452522099"><ele>393.3999938964844</ele></trkpt><trkpt lat="47.399271190632135" lon="8.461753759998828"><ele>394.29998779296875</ele></trkpt><trkpt lat="47.399354419671" lon="8.46180172637105"><ele>397.0999755859375</ele></trkpt><trkpt lat="47.39943943545222" lon="8.461851051542908"><ele>399.29998779296875</ele></trkpt><trkpt lat="47.39952175272629" lon="8.461900325026363"><ele>399.5</ele></trkpt><trkpt lat="47.39960498083383" lon="8.461948290932924"><ele>398.8999938964844</ele></trkpt><trkpt lat="47.399689096491784" lon="8.461997598875314"><ele>398.29998779296875</ele></trkpt><trkpt lat="47.39977231295779" lon="8.462046890053898"><ele>397.79998779296875</ele></trkpt><trkpt lat="47.39985644072294" lon="8.462094873655587"><ele>397.29998779296875</ele></trkpt><trkpt lat="47.39993965718895" lon="8.462144164834172"><ele>396.6999816894531</ele></trkpt><trkpt lat="47.40002378448844" lon="8.462192148901522"><ele>396.1999816894531</ele></trkpt><trkpt lat="47.40010700095445" lon="8.462241440545768"><ele>395.5999755859375</ele></trkpt><trkpt lat="47.40019021742046" lon="8.462290732190013"><ele>395.0999755859375</ele></trkpt><trkpt lat="47.400274344719946" lon="8.462338716723025"><ele>394.5999755859375</ele></trkpt><trkpt lat="47.40039067249745" lon="8.462407192215323"><ele>394.1999816894531</ele></trkpt><trkpt lat="47.40042235283181" lon="8.462283269036561"><ele>394.0</ele></trkpt><trkpt lat="47.400453133974224" lon="8.462159327697009"><ele>394.0</ele></trkpt><trkpt lat="47.400484825950116" lon="8.462034079246223"><ele>394.0</ele></trkpt><trkpt lat="47.40051740547642" lon="8.461910172831267"><ele>394.0</ele></trkpt><trkpt lat="47.400547286495566" lon="8.461786213796586"><ele>394.0</ele></trkpt><trkpt lat="47.40057710884139" lon="8.461668877862394"><ele>394.0999755859375</ele></trkpt><trkpt lat="47.400662183295935" lon="8.461711580865085"><ele>394.0999755859375</ele></trkpt><trkpt lat="47.40074725728482" lon="8.461754283867776"><ele>394.0999755859375</ele></trkpt><trkpt lat="47.400832331273705" lon="8.461796987336129"><ele>394.1999816894531</ele></trkpt><trkpt lat="47.400917393155396" lon="8.461841015145183"><ele>394.1999816894531</ele></trkpt><trkpt lat="47.40100246714428" lon="8.461883718613535"><ele>394.0999755859375</ele></trkpt><trkpt lat="47.40112336212769" lon="8.461944332811981"><ele>394.0999755859375</ele></trkpt><trkpt lat="47.401155941654" lon="8.46182042453438"><ele>394.0</ele></trkpt><trkpt lat="47.401189408265054" lon="8.46169785829261"><ele>394.0</ele></trkpt><trkpt lat="47.401189408265054" lon="8.46169785829261"><ele>394.0</ele></trkpt><trkpt lat="47.40122108813375" lon="8.46157393231988"><ele>394.0</ele></trkpt><trkpt lat="47.40125276753679" lon="8.46145000634715"><ele>394.0</ele></trkpt><trkpt lat="47.40128534659743" lon="8.461326097603887"><ele>394.0</ele></trkpt><trkpt lat="47.40131791355088" lon="8.461203512735665"><ele>394.0</ele></trkpt><trkpt lat="47.401350492145866" lon="8.461079603992403"><ele>394.0</ele></trkpt><trkpt lat="47.40138307027519" lon="8.460955694317818"><ele>394.0</ele></trkpt><trkpt lat="47.401416548062116" lon="8.460831802338362"><ele>394.0</ele></trkpt><trkpt lat="47.40144731570035" lon="8.460709182545543"><ele>394.0</ele></trkpt><trkpt lat="47.40147989382967" lon="8.460585272870958"><ele>394.0</ele></trkpt><trkpt lat="47.40151432901621" lon="8.460454774554819"><ele>394.0</ele></trkpt><trkpt lat="47.401577048469335" lon="8.460482473950833"><ele>394.0</ele></trkpt><trkpt lat="47.40160514134914" lon="8.460357152856886"><ele>393.8999938964844</ele></trkpt><trkpt lat="47.40163324540481" lon="8.460230506956577"><ele>394.0</ele></trkpt><trkpt lat="47.40166133781895" lon="8.46010518586263"><ele>394.0</ele></trkpt><trkpt lat="47.40168944187462" lon="8.459978539962322"><ele>394.0</ele></trkpt><trkpt lat="47.40171843348071" lon="8.45985323516652"><ele>393.8999938964844</ele></trkpt><trkpt lat="47.40174652589485" lon="8.459727913606912"><ele>394.0</ele></trkpt><trkpt lat="47.40178309800103" lon="8.45955903455615"><ele>394.0</ele></trkpt><trkpt lat="47.40171126741916" lon="8.4595444095321"><ele>393.79998779296875</ele></trkpt><trkpt lat="47.40172501653433" lon="8.459413513541222"><ele>393.6999816894531</ele></trkpt><trkpt lat="47.40173966484144" lon="8.45928263431415"><ele>393.79998779296875</ele></trkpt><trkpt lat="47.40175341349095" lon="8.459151738323271"><ele>393.79998779296875</ele></trkpt><trkpt lat="47.40177002362907" lon="8.459002349060029"><ele>393.6999816894531</ele></trkpt><trkpt lat="47.401777488645166" lon="8.458870007656515"><ele>393.6999816894531</ele></trkpt><trkpt lat="47.40178315434605" lon="8.458737631328404"><ele>393.6999816894531</ele></trkpt><trkpt lat="47.4017888084054" lon="8.458606580272317"><ele>393.5999755859375</ele></trkpt><trkpt lat="47.40179537329823" lon="8.458474221173674"><ele>393.5999755859375</ele></trkpt><trkpt lat="47.401801938191056" lon="8.458341862540692"><ele>393.5999755859375</ele></trkpt><trkpt lat="47.40180940227583" lon="8.458209520671517"><ele>393.5999755859375</ele></trkpt><trkpt lat="47.40181506751105" lon="8.458077144343406"><ele>393.5999755859375</ele></trkpt><trkpt lat="47.40182073228061" lon="8.457944768480957"><ele>393.5999755859375</ele></trkpt><trkpt lat="47.401827284600586" lon="8.457813733723015"><ele>393.5999755859375</ele></trkpt><trkpt lat="47.40183384902775" lon="8.457681375090033"><ele>393.5</ele></trkpt><trkpt lat="47.4018404125236" lon="8.45754901599139"><ele>393.5</ele></trkpt><trkpt lat="47.4018469764851" lon="8.457416656892747"><ele>393.5</ele></trkpt><trkpt lat="47.40185353998095" lon="8.457284297794104"><ele>393.5</ele></trkpt><trkpt lat="47.40185920428485" lon="8.457151921000332"><ele>393.5</ele></trkpt><trkpt lat="47.4018657556735" lon="8.457020886708051"><ele>393.3999938964844</ele></trkpt><trkpt lat="47.40187231870368" lon="8.456888527609408"><ele>393.3999938964844</ele></trkpt><trkpt lat="47.40188004961237" lon="8.456725718919188"><ele>393.3999938964844</ele></trkpt><trkpt lat="47.40187041228637" lon="8.456594374962151"><ele>393.3999938964844</ele></trkpt><trkpt lat="47.40185807738453" lon="8.456462979316711"><ele>393.3999938964844</ele></trkpt><trkpt lat="47.40184844005853" lon="8.456331635825336"><ele>393.3999938964844</ele></trkpt><trkpt lat="47.401837003882974" lon="8.456200257409364"><ele>393.29998779296875</ele></trkpt><trkpt lat="47.401823160704225" lon="8.456035712268203"><ele>393.29998779296875</ele></trkpt><trkpt lat="47.40183510724455" lon="8.455904780421406"><ele>393.1999816894531</ele></trkpt><trkpt lat="47.40185305569321" lon="8.455705071333796"><ele>393.0999755859375</ele></trkpt><trkpt lat="47.40192465344444" lon="8.45574618363753"><ele>393.0</ele></trkpt><trkpt lat="47.40198676800355" lon="8.455842758528888"><ele>393.0</ele></trkpt><trkpt lat="47.40204799501225" lon="8.45593799231574"><ele>393.0</ele></trkpt><trkpt lat="47.402110109105706" lon="8.45603456767276"><ele>393.0</ele></trkpt><trkpt lat="47.40217222366482" lon="8.45613114302978"><ele>392.8999938964844</ele></trkpt><trkpt lat="47.40223522577435" lon="8.45622906088829"><ele>392.8999938964844</ele></trkpt><trkpt lat="47.40229370770976" lon="8.456329542212188"><ele>392.8999938964844</ele></trkpt><trkpt lat="47.40235310047865" lon="8.456428716424853"><ele>393.0</ele></trkpt><trkpt lat="47.40241248160601" lon="8.456529214978218"><ele>393.0</ele></trkpt><trkpt lat="47.40247096307576" lon="8.456629697233438"><ele>393.0999755859375</ele></trkpt><trkpt lat="47.40252944454551" lon="8.456730179488659"><ele>393.0999755859375</ele></trkpt><trkpt lat="47.402588836848736" lon="8.456829354166985"><ele>393.0999755859375</ele></trkpt><trkpt lat="47.402647318318486" lon="8.456929836887866"><ele>393.1999816894531</ele></trkpt><trkpt lat="47.40270669898018" lon="8.457030336838216"><ele>393.1999816894531</ele></trkpt><trkpt lat="47.402765191625804" lon="8.457129495218396"><ele>393.29998779296875</ele></trkpt><trkpt lat="47.402825471479446" lon="8.457230012863874"><ele>393.29998779296875</ele></trkpt><trkpt lat="47.40288305329159" lon="8.457330479286611"><ele>393.29998779296875</ele></trkpt><trkpt lat="47.402942433487624" lon="8.457430980168283"><ele>393.29998779296875</ele></trkpt><trkpt lat="47.403000926133245" lon="8.457530139479786"><ele>393.3999938964844</ele></trkpt><trkpt lat="47.40306030586362" lon="8.45763064082712"><ele>393.3999938964844</ele></trkpt><trkpt lat="47.40311878686771" lon="8.457731125410646"><ele>393.3999938964844</ele></trkpt><trkpt lat="47.403178178239614" lon="8.457830302417278"><ele>393.3999938964844</ele></trkpt><trkpt lat="47.40323665877804" lon="8.457930787466466"><ele>393.3999938964844</ele></trkpt><trkpt lat="47.40330845396966" lon="8.458051400259137"><ele>393.5</ele></trkpt><trkpt lat="47.40336186578497" lon="8.458012675866485"><ele>393.3999938964844</ele></trkpt><trkpt lat="47.40343677951023" lon="8.458085652906448"><ele>393.29998779296875</ele></trkpt><trkpt lat="47.40351169323549" lon="8.458158630412072"><ele>393.0</ele></trkpt><trkpt lat="47.403588405344635" lon="8.458231642376631"><ele>392.6999816894531</ele></trkpt><trkpt lat="47.403662419877946" lon="8.45830460311845"><ele>392.5</ele></trkpt><trkpt lat="47.40373733313754" lon="8.458377581089735"><ele>392.29998779296875</ele></trkpt><trkpt lat="47.40380779700354" lon="8.458445174619555"><ele>392.1999816894531</ele></trkpt><trkpt lat="47.403887312393636" lon="8.458506316877902"><ele>392.1999816894531</ele></trkpt><trkpt lat="47.40396773861721" lon="8.458566152025014"><ele>392.1999816894531</ele></trkpt><trkpt lat="47.40405797585845" lon="8.458635449875146"><ele>392.29998779296875</ele></trkpt><trkpt lat="47.40414495486766" lon="8.458666263148189"><ele>392.5</ele></trkpt><trkpt lat="47.40423282189295" lon="8.4586984179914"><ele>392.6999816894531</ele></trkpt><trkpt lat="47.40431980090216" lon="8.458729231730103"><ele>393.0999755859375</ele></trkpt><trkpt lat="47.40440766746178" lon="8.458761387038976"><ele>393.5999755859375</ele></trkpt><trkpt lat="47.4045242308639" lon="8.458803366404027"><ele>394.0999755859375</ele></trkpt><trkpt lat="47.404512281529605" lon="8.458934304304421"><ele>394.0</ele></trkpt><trkpt lat="47.40449943207204" lon="8.459065224509686"><ele>393.6999816894531</ele></trkpt><trkpt lat="47.404487470630556" lon="8.45919748628512"><ele>393.5999755859375</ele></trkpt><trkpt lat="47.40447552036494" lon="8.459328423719853"><ele>393.5</ele></trkpt><trkpt lat="47.40446267090738" lon="8.459459343925118"><ele>393.5</ele></trkpt><trkpt lat="47.40445472719148" lon="8.459543985780329"><ele>393.5</ele></trkpt><trkpt lat="47.40443379478529" lon="8.459673426114023"><ele>393.5</ele></trkpt><trkpt lat="47.40441377367824" lon="8.459801558870822"><ele>393.5</ele></trkpt><trkpt lat="47.404392841272056" lon="8.459930998738855"><ele>393.5</ele></trkpt><trkpt lat="47.40437192004174" lon="8.460059113800526"><ele>393.5</ele></trkpt><trkpt lat="47.4043518868275" lon="8.460188570898026"><ele>393.5</ele></trkpt><trkpt lat="47.40433095395565" lon="8.46031801076606"><ele>393.5</ele></trkpt><trkpt lat="47.40431003225967" lon="8.460446125362068"><ele>393.5999755859375</ele></trkpt><trkpt lat="47.40431003225967" lon="8.460446125362068"><ele>393.5999755859375</ele></trkpt><trkpt lat="47.404289099387825" lon="8.46057556476444"><ele>393.5999755859375</ele></trkpt><trkpt lat="47.40426906524226" lon="8.46070502139628"><ele>393.6999816894531</ele></trkpt><trkpt lat="47.40424814354628" lon="8.460833135992289"><ele>393.6999816894531</ele></trkpt><trkpt lat="47.40422720974311" lon="8.46096257539466"><ele>393.6999816894531</ele></trkpt><trkpt lat="47.40420718723908" lon="8.461090706754476"><ele>393.6999816894531</ele></trkpt><trkpt lat="47.40418625297025" lon="8.461220145691186"><ele>393.6999816894531</ele></trkpt><trkpt lat="47.40416531916708" lon="8.461349584627897"><ele>393.6999816894531</ele></trkpt><trkpt lat="47.40414529573172" lon="8.461477715987712"><ele>393.6999816894531</ele></trkpt><trkpt lat="47.40412436146289" lon="8.461607154924423"><ele>393.79998779296875</ele></trkpt><trkpt lat="47.4041034267284" lon="8.461736593395472"><ele>393.79998779296875</ele></trkpt><trkpt lat="47.40407390566543" lon="8.461921512614936"><ele>393.8999938964844</ele></trkpt><trkpt lat="47.40404132613912" lon="8.462045427877456"><ele>393.8999938964844</ele></trkpt><trkpt lat="47.4040078590624" lon="8.462168000638485"><ele>394.0</ele></trkpt><trkpt lat="47.4039752795361" lon="8.462291915435344"><ele>394.0</ele></trkpt><trkpt lat="47.40394181199372" lon="8.462414488196373"><ele>394.0999755859375</ele></trkpt><trkpt lat="47.40390923200175" lon="8.46253840252757"><ele>394.0999755859375</ele></trkpt><trkpt lat="47.40387666365132" lon="8.462660992052406"><ele>394.0999755859375</ele></trkpt><trkpt lat="47.403843184467405" lon="8.462784888688475"><ele>394.1999816894531</ele></trkpt><trkpt lat="47.403811514843255" lon="8.462907495442778"><ele>394.1999816894531</ele></trkpt><trkpt lat="47.403777136001736" lon="8.463031374383718"><ele>394.1999816894531</ele></trkpt><trkpt lat="47.403745466377586" lon="8.46315398067236"><ele>394.1999816894531</ele></trkpt><trkpt lat="47.40371198626235" lon="8.463277876842767"><ele>394.0999755859375</ele></trkpt><trkpt lat="47.403679416980594" lon="8.463400465901941"><ele>394.1999816894531</ele></trkpt><trkpt lat="47.40364593686536" lon="8.463524361606687"><ele>394.1999816894531</ele></trkpt><trkpt lat="47.403612467925996" lon="8.463646932505071"><ele>394.1999816894531</ele></trkpt><trkpt lat="47.40358082158491" lon="8.463766888715327"><ele>394.1999816894531</ele></trkpt><trkpt lat="47.403618204873055" lon="8.46360862115398"><ele>394.0999755859375</ele></trkpt><trkpt lat="47.403645067475736" lon="8.463622387032956"><ele>394.0999755859375</ele></trkpt><trkpt lat="47.403618204873055" lon="8.46360862115398"><ele>394.0999755859375</ele></trkpt><trkpt lat="47.403580262791365" lon="8.463728456292301"><ele>394.29998779296875</ele></trkpt><trkpt lat="47.40354414284229" lon="8.463845676276833"><ele>394.29998779296875</ele></trkpt><trkpt lat="47.40350977471098" lon="8.463968229945749"><ele>394.29998779296875</ele></trkpt><trkpt lat="47.403475417755544" lon="8.464089458342642"><ele>394.29998779296875</ele></trkpt><trkpt lat="47.40344014996663" lon="8.464211993850768"><ele>394.29998779296875</ele></trkpt><trkpt lat="47.40340488171205" lon="8.464334529358894"><ele>394.29998779296875</ele></trkpt><trkpt lat="47.40337141184136" lon="8.464457099325955"><ele>394.3999938964844</ele></trkpt><trkpt lat="47.40333615522832" lon="8.464578310027719"><ele>394.3999938964844</ele></trkpt><trkpt lat="47.40330088697374" lon="8.464700845070183"><ele>394.3999938964844</ele></trkpt><trkpt lat="47.40326741710305" lon="8.464823414571583"><ele>394.3999938964844</ele></trkpt><trkpt lat="47.40323214838281" lon="8.464945949148387"><ele>394.3999938964844</ele></trkpt><trkpt lat="47.403196890838444" lon="8.465067159384489"><ele>394.3999938964844</ele></trkpt><trkpt lat="47.403163420502096" lon="8.465189728420228"><ele>394.3999938964844</ele></trkpt><trkpt lat="47.40312725212425" lon="8.465312245301902"><ele>394.3999938964844</ele></trkpt><trkpt lat="47.403092882130295" lon="8.465434796642512"><ele>394.3999938964844</ele></trkpt><trkpt lat="47.40305942296982" lon="8.465556040406227"><ele>394.3999938964844</ele></trkpt><trkpt lat="47.40302325412631" lon="8.46567855682224"><ele>394.3999938964844</ele></trkpt><trkpt lat="47.402988884132355" lon="8.465801107697189"><ele>394.5</ele></trkpt><trkpt lat="47.40295451367274" lon="8.465923658572137"><ele>394.5999755859375</ele></trkpt><trkpt lat="47.40291925519705" lon="8.466044867411256"><ele>394.6999816894531</ele></trkpt><trkpt lat="47.40288488473743" lon="8.466167417820543"><ele>394.6999816894531</ele></trkpt><trkpt lat="47.402850513812155" lon="8.46628996822983"><ele>394.5999755859375</ele></trkpt><trkpt lat="47.402811504434794" lon="8.46642832737416"><ele>394.5999755859375</ele></trkpt><trkpt lat="47.402786978986114" lon="8.466556366533041"><ele>394.5999755859375</ele></trkpt><trkpt lat="47.40276335272938" lon="8.46668442338705"><ele>394.5999755859375</ele></trkpt><trkpt lat="47.40274152485654" lon="8.466812514699996"><ele>394.5999755859375</ele></trkpt><trkpt lat="47.402707510627806" lon="8.466996015049517"><ele>394.5999755859375</ele></trkpt><trkpt lat="47.40269285393879" lon="8.46712689427659"><ele>394.6999816894531</ele></trkpt><trkpt lat="47.402679095976055" lon="8.467257790733129"><ele>394.6999816894531</ele></trkpt><trkpt lat="47.40266533801332" lon="8.467388687189668"><ele>394.6999816894531</ele></trkpt><trkpt lat="47.40265068039298" lon="8.46751956595108"><ele>394.6999816894531</ele></trkpt><trkpt lat="47.40263692243025" lon="8.467650462407619"><ele>394.79998779296875</ele></trkpt><trkpt lat="47.40262316400185" lon="8.467781358398497"><ele>394.79998779296875</ele></trkpt><trkpt lat="47.40260940557346" lon="8.467912254389375"><ele>394.79998779296875</ele></trkpt><trkpt lat="47.40258878516033" lon="8.46810661163181"><ele>394.79998779296875</ele></trkpt><trkpt lat="47.40258580632508" lon="8.468239040579647"><ele>394.79998779296875</ele></trkpt><trkpt lat="47.40258282748982" lon="8.468371469993144"><ele>394.8999938964844</ele></trkpt><trkpt lat="47.40257984865457" lon="8.46850389894098"><ele>394.8999938964844</ele></trkpt><trkpt lat="47.40257686981931" lon="8.468636327888817"><ele>394.8999938964844</ele></trkpt><trkpt lat="47.4025738905184" lon="8.468768757302314"><ele>394.8999938964844</ele></trkpt><trkpt lat="47.40257091121748" lon="8.46890118625015"><ele>394.8999938964844</ele></trkpt><trkpt lat="47.4025679314509" lon="8.469033615197986"><ele>394.8999938964844</ele></trkpt><trkpt lat="47.402564951684326" lon="8.469166044145823"><ele>394.8999938964844</ele></trkpt><trkpt lat="47.40256197191775" lon="8.46929847355932"><ele>394.79998779296875</ele></trkpt><trkpt lat="47.402559228241444" lon="8.469404409639537"><ele>394.3999938964844</ele></trkpt><trkpt lat="47.40257154870778" lon="8.469535809475929"><ele>394.0999755859375</ele></trkpt><trkpt lat="47.402581171132624" lon="8.469667157623917"><ele>394.0999755859375</ele></trkpt><trkpt lat="47.4025934911333" lon="8.46979855792597"><ele>394.0999755859375</ele></trkpt><trkpt lat="47.40260311309248" lon="8.469929906073958"><ele>394.29998779296875</ele></trkpt><trkpt lat="47.40261543309316" lon="8.470061306841671"><ele>394.5</ele></trkpt><trkpt lat="47.40262505505234" lon="8.47019265498966"><ele>394.6999816894531</ele></trkpt><trkpt lat="47.4026414337568" lon="8.470373154152185"><ele>394.8999938964844</ele></trkpt><trkpt lat="47.40263935178518" lon="8.47050560079515"><ele>395.0999755859375</ele></trkpt><trkpt lat="47.402638169471174" lon="8.470638065133244"><ele>395.3999938964844</ele></trkpt><trkpt lat="47.402636986691505" lon="8.470770529005677"><ele>395.5999755859375</ele></trkpt><trkpt lat="47.402635803446174" lon="8.47090299287811"><ele>395.6999816894531</ele></trkpt><trkpt lat="47.40263540158048" lon="8.47104872064665"><ele>395.79998779296875</ele></trkpt><trkpt lat="47.40265222871676" lon="8.471178884152323"><ele>395.79998779296875</ele></trkpt><trkpt lat="47.402670866344124" lon="8.47130775777623"><ele>395.79998779296875</ele></trkpt><trkpt lat="47.402689491864294" lon="8.47143795574084"><ele>395.79998779296875</ele></trkpt><trkpt lat="47.40270721772686" lon="8.471568136941642"><ele>395.6999816894531</ele></trkpt><trkpt lat="47.40272495523095" lon="8.471696993336082"><ele>395.6999816894531</ele></trkpt><trkpt lat="47.40274447994307" lon="8.47182720946148"><ele>395.6999816894531</ele></trkpt><trkpt lat="47.40276130614802" lon="8.471957372967154"><ele>395.6999816894531</ele></trkpt><trkpt lat="47.40277994284406" lon="8.472086247056723"><ele>395.6999816894531</ele></trkpt><trkpt lat="47.402797668240964" lon="8.472216428723186"><ele>395.5999755859375</ele></trkpt><trkpt lat="47.402821416035295" lon="8.472377199213952"><ele>395.5999755859375</ele></trkpt><trkpt lat="47.402819332201034" lon="8.472509645856917"><ele>395.6999816894531</ele></trkpt><trkpt lat="47.40281814709306" lon="8.472642110195011"><ele>395.6999816894531</ele></trkpt><trkpt lat="47.40281696198508" lon="8.472774574998766"><ele>395.6999816894531</ele></trkpt><trkpt lat="47.40281696198508" lon="8.472774574998766"><ele>395.6999816894531</ele></trkpt><trkpt lat="47.40283040469512" lon="8.472780134994537"><ele>395.6999816894531</ele></trkpt><trkpt lat="47.40281019592658" lon="8.473329565487802"><ele>395.79998779296875</ele></trkpt><trkpt lat="47.40281983325258" lon="8.473659646231681"><ele>395.79998779296875</ele></trkpt><trkpt lat="47.4028501547873" lon="8.473990129306912"><ele>395.8999938964844</ele></trkpt><trkpt lat="47.402919880114496" lon="8.474339927081019"><ele>396.0</ele></trkpt><trkpt lat="47.40302018169314" lon="8.47469031997025"><ele>396.0</ele></trkpt><trkpt lat="47.403200005646795" lon="8.47530061379075"><ele>396.0</ele></trkpt><trkpt lat="47.40329042356461" lon="8.475649493280798"><ele>396.0</ele></trkpt><trkpt lat="47.40336049627513" lon="8.476060247980058"><ele>396.1999816894531</ele></trkpt><trkpt lat="47.40339009882882" lon="8.476169465109706"><ele>396.1999816894531</ele></trkpt><trkpt lat="47.40351054444909" lon="8.47657987754792"><ele>396.3999938964844</ele></trkpt><trkpt lat="47.4035302484408" lon="8.476789594627917"><ele>396.5</ele></trkpt><trkpt lat="47.40353987459093" lon="8.476919621694833"><ele>396.5</ele></trkpt><trkpt lat="47.40353024518117" lon="8.477090345229954"><ele>396.29998779296875</ele></trkpt><trkpt lat="47.40351027622819" lon="8.477210520766675"><ele>396.1999816894531</ele></trkpt><trkpt lat="47.403480413835496" lon="8.477330503985286"><ele>396.0999755859375</ele></trkpt><trkpt lat="47.40339973056689" lon="8.477600533049554"><ele>395.8999938964844</ele></trkpt><trkpt lat="47.40339002292603" lon="8.477679837029427"><ele>395.8999938964844</ele></trkpt><trkpt lat="47.403400362469256" lon="8.477730384562165"><ele>395.8999938964844</ele></trkpt><trkpt lat="47.403509742580354" lon="8.477870306931436"><ele>395.79998779296875</ele></trkpt><trkpt lat="47.40353007009253" lon="8.477910450194031"><ele>395.79998779296875</ele></trkpt><trkpt lat="47.40353033784777" lon="8.477980674710125"><ele>395.79998779296875</ele></trkpt><trkpt lat="47.40351028973237" lon="8.478409548755735"><ele>395.8999938964844</ele></trkpt><trkpt lat="47.40340980794281" lon="8.478480456396937"><ele>396.5999755859375</ele></trkpt><trkpt lat="47.40338974818587" lon="8.478510537650436"><ele>397.1999816894531</ele></trkpt><trkpt lat="47.40337040927261" lon="8.478560505900532"><ele>397.6999816894531</ele></trkpt><trkpt lat="47.40337976580486" lon="8.478620308451355"><ele>398.29998779296875</ele></trkpt><trkpt lat="47.40340990247205" lon="8.47866991814226"><ele>399.0</ele></trkpt><trkpt lat="47.404280074406415" lon="8.47882999619469"><ele>399.6999816894531</ele></trkpt><trkpt lat="47.40433988813311" lon="8.47957974113524"><ele>405.1999816894531</ele></trkpt><trkpt lat="47.4043602081947" lon="8.479720578994602"><ele>406.1999816894531</ele></trkpt><trkpt lat="47.404380093328655" lon="8.479809737298638"><ele>406.8999938964844</ele></trkpt><trkpt lat="47.404419844504446" lon="8.480090071447194"><ele>409.1999816894531</ele></trkpt><trkpt lat="47.40442046942189" lon="8.48012055689469"><ele>409.5</ele></trkpt><trkpt lat="47.40444017155096" lon="8.480130216572434"><ele>409.6999816894531</ele></trkpt><trkpt lat="47.40446986164898" lon="8.480129471980035"><ele>409.8999938964844</ele></trkpt><trkpt lat="47.40448990976438" lon="8.48010071599856"><ele>410.1999816894531</ele></trkpt><trkpt lat="47.40463977260515" lon="8.47974061826244"><ele>414.8999938964844</ele></trkpt><trkpt lat="47.40471003158018" lon="8.479530003853142"><ele>416.6999816894531</ele></trkpt><trkpt lat="47.40471451636404" lon="8.479531416203827"><ele>416.6999816894531</ele></trkpt><trkpt lat="47.40471451636404" lon="8.479531416203827"><ele>416.6999816894531</ele></trkpt><trkpt lat="47.40471003158018" lon="8.479530003853142"><ele>416.6999816894531</ele></trkpt><trkpt lat="47.40474043786526" lon="8.47944977786392"><ele>418.5</ele></trkpt><trkpt lat="47.40476039983332" lon="8.479630358051509"><ele>420.0999755859375</ele></trkpt><trkpt lat="47.404799884650856" lon="8.479840467683971"><ele>421.6999816894531</ele></trkpt><trkpt lat="47.40488002682105" lon="8.480230238288641"><ele>425.1999816894531</ele></trkpt><trkpt lat="47.40490027004853" lon="8.480279656592757"><ele>425.5999755859375</ele></trkpt><trkpt lat="47.40494047757238" lon="8.48030959116295"><ele>425.1999816894531</ele></trkpt><trkpt lat="47.40494974143803" lon="8.480179929174483"><ele>426.5999755859375</ele></trkpt><trkpt lat="47.40495999250561" lon="8.480140381958336"><ele>426.8999938964844</ele></trkpt><trkpt lat="47.40498994523659" lon="8.480110494419932"><ele>427.29998779296875</ele></trkpt><trkpt lat="47.40504049928859" lon="8.48009028378874"><ele>428.0</ele></trkpt><trkpt lat="47.405160314403474" lon="8.480070102028549"><ele>428.29998779296875</ele></trkpt><trkpt lat="47.40521967364475" lon="8.480769503861666"><ele>429.1999816894531</ele></trkpt><trkpt lat="47.40521993488073" lon="8.4810397955589"><ele>429.5999755859375</ele></trkpt><trkpt lat="47.40521003678441" lon="8.4812396671623"><ele>429.6999816894531</ele></trkpt><trkpt lat="47.40518024843186" lon="8.481550443917513"><ele>430.0999755859375</ele></trkpt><trkpt lat="47.40510999131948" lon="8.48195979790762"><ele>430.5</ele></trkpt><trkpt lat="47.40499986894429" lon="8.48269960237667"><ele>431.0999755859375</ele></trkpt><trkpt lat="47.40499896975234" lon="8.48269958468154"><ele>431.0999755859375</ele></trkpt><trkpt lat="47.40499896975234" lon="8.48269958468154"><ele>431.3999938964844</ele></trkpt><trkpt lat="47.40497802384198" lon="8.48282769229263"><ele>431.5</ele></trkpt><trkpt lat="47.40495706535876" lon="8.482957124710083"><ele>431.6999816894531</ele></trkpt><trkpt lat="47.40493703028187" lon="8.48308392520994"><ele>431.79998779296875</ele></trkpt><trkpt lat="47.404906226787716" lon="8.483207864221185"><ele>431.8999938964844</ele></trkpt><trkpt lat="47.40487541118637" lon="8.483333128038794"><ele>432.0</ele></trkpt><trkpt lat="47.40484550688416" lon="8.483457084745169"><ele>432.1999816894531</ele></trkpt><trkpt lat="47.40481469128281" lon="8.483582348562777"><ele>432.29998779296875</ele></trkpt><trkpt lat="47.40478852763772" lon="8.483690479304641"><ele>432.5</ele></trkpt><trkpt lat="47.404852465726435" lon="8.483781828545034"><ele>433.29998779296875</ele></trkpt><trkpt lat="47.40492085274309" lon="8.48387856548652"><ele>435.0</ele></trkpt><trkpt lat="47.40495301457122" lon="8.48400241555646"><ele>437.29998779296875</ele></trkpt><trkpt lat="47.40499040437862" lon="8.484144917223603"><ele>439.6999816894531</ele></trkpt><trkpt lat="47.40504703950137" lon="8.484248048625886"><ele>441.5999755859375</ele></trkpt><trkpt lat="47.40510277543217" lon="8.484351162798703"><ele>443.5</ele></trkpt><trkpt lat="47.405159410554916" lon="8.484454294666648"><ele>445.5</ele></trkpt><trkpt lat="47.40521603357047" lon="8.484558751806617"><ele>446.8999938964844</ele></trkpt><trkpt lat="47.40528239309788" lon="8.48468062421307"><ele>447.79998779296875</ele></trkpt><trkpt lat="47.40535543160513" lon="8.484760229475796"><ele>448.0999755859375</ele></trkpt><trkpt lat="47.40545248799026" lon="8.48486945591867"><ele>448.3999938964844</ele></trkpt><trkpt lat="47.40552832046524" lon="8.484938517212868"><ele>448.79998779296875</ele></trkpt><trkpt lat="47.40560414036736" lon="8.48500890377909"><ele>449.3999938964844</ele></trkpt><trkpt lat="47.40568087203428" lon="8.485077983699739"><ele>450.29998779296875</ele></trkpt><trkpt lat="47.405758490785956" lon="8.485148405656219"><ele>451.5</ele></trkpt><trkpt lat="47.40585305308923" lon="8.485235060565174"><ele>452.29998779296875</ele></trkpt><trkpt lat="47.405871759634465" lon="8.485155930742621"><ele>452.6999816894531</ele></trkpt><trkpt lat="47.40595496632159" lon="8.485205263830721"><ele>453.1999816894531</ele></trkpt><trkpt lat="47.40606056060642" lon="8.48526563681662"><ele>454.1999816894531</ele></trkpt><trkpt lat="47.40613454580307" lon="8.485339963342994"><ele>455.1999816894531</ele></trkpt><trkpt lat="47.40620851935819" lon="8.48541561467573"><ele>455.8999938964844</ele></trkpt><trkpt lat="47.406283403746784" lon="8.485489959362894"><ele>456.5</ele></trkpt><trkpt lat="47.406356477644295" lon="8.485565593466163"><ele>457.0999755859375</ele></trkpt><trkpt lat="47.40643402375281" lon="8.4856439656578"><ele>457.6999816894531</ele></trkpt><trkpt lat="47.406514424365014" lon="8.485705169383436"><ele>458.3999938964844</ele></trkpt><trkpt lat="47.406593937426805" lon="8.485765031073242"><ele>459.1999816894531</ele></trkpt><trkpt lat="47.406648424919695" lon="8.485807176213712"><ele>459.8999938964844</ele></trkpt><trkpt lat="47.406734437681735" lon="8.485844641458243"><ele>460.6999816894531</ele></trkpt><trkpt lat="47.40682136127725" lon="8.485880800057203"><ele>461.5999755859375</ele></trkpt><trkpt lat="47.40690737357363" lon="8.485918265301734"><ele>462.5</ele></trkpt><trkpt lat="47.407006840221584" lon="8.485959970392287"><ele>463.3999938964844</ele></trkpt><trkpt lat="47.40706984093413" lon="8.486055282875896"><ele>464.5</ele></trkpt><trkpt lat="47.407131067011505" lon="8.486147910822183"><ele>465.3999938964844</ele></trkpt><trkpt lat="47.40720412880182" lon="8.48622487206012"><ele>466.3999938964844</ele></trkpt><trkpt lat="47.407277178019285" lon="8.48630315810442"><ele>467.5999755859375</ele></trkpt><trkpt lat="47.407349340151995" lon="8.486380101647228"><ele>469.0</ele></trkpt><trkpt lat="47.40746070072055" lon="8.48649889184162"><ele>470.0999755859375</ele></trkpt><trkpt lat="47.407417375128716" lon="8.4866146389395"><ele>470.3999938964844</ele></trkpt><trkpt lat="47.40738695207983" lon="8.486696189735085"><ele>470.5</ele></trkpt><trkpt lat="47.40744019160047" lon="8.486776736564934"><ele>470.8999938964844</ele></trkpt><trkpt lat="47.40747235016897" lon="8.486900594085455"><ele>471.5999755859375</ele></trkpt><trkpt lat="47.40750541957095" lon="8.48702314402908"><ele>472.5</ele></trkpt><trkpt lat="47.4075384773314" lon="8.48714701924473"><ele>473.3999938964844</ele></trkpt><trkpt lat="47.407571534626186" lon="8.487270894926041"><ele>474.3999938964844</ele></trkpt><trkpt lat="47.40760279307142" lon="8.487394735217094"><ele>475.5</ele></trkpt><trkpt lat="47.4076401903294" lon="8.487535920925438"><ele>476.5999755859375</ele></trkpt><trkpt lat="47.40765699930489" lon="8.48766610212624"><ele>477.5</ele></trkpt><trkpt lat="47.40767290862277" lon="8.487796265166253"><ele>478.29998779296875</ele></trkpt><trkpt lat="47.4076897171326" lon="8.487926446367055"><ele>479.1999816894531</ele></trkpt><trkpt lat="47.40770652517676" lon="8.488056627567858"><ele>480.0999755859375</ele></trkpt><trkpt lat="47.40772243402898" lon="8.488186791073531"><ele>481.0</ele></trkpt><trkpt lat="47.40773340361193" lon="8.488266507163644"><ele>481.79998779296875</ele></trkpt><trkpt lat="47.40777551336214" lon="8.488383937161416"><ele>482.8999938964844</ele></trkpt><trkpt lat="47.40782902576029" lon="8.4885333920829"><ele>484.1999816894531</ele></trkpt><trkpt lat="47.40789933921769" lon="8.48861560318619"><ele>485.29998779296875</ele></trkpt><trkpt lat="47.4079705523327" lon="8.48869783245027"><ele>486.29998779296875</ele></trkpt><trkpt lat="47.40803995449096" lon="8.488781351130456"><ele>487.3999938964844</ele></trkpt><trkpt lat="47.40810493240133" lon="8.488856832962483"><ele>488.79998779296875</ele></trkpt><trkpt lat="47.408157328143716" lon="8.489030117634684"><ele>490.29998779296875</ele></trkpt><trkpt lat="47.40823041507974" lon="8.489005058538169"><ele>491.29998779296875</ele></trkpt><trkpt lat="47.40830572228879" lon="8.488933668006212"><ele>491.79998779296875</ele></trkpt><trkpt lat="47.408381916582584" lon="8.488863619510084"><ele>492.0999755859375</ele></trkpt><trkpt lat="47.40843816893175" lon="8.488810402806848"><ele>493.1999816894531</ele></trkpt><trkpt lat="47.408516745083034" lon="8.488874228205532"><ele>495.29998779296875</ele></trkpt><trkpt lat="47.4086078396067" lon="8.488946250639856"><ele>496.0999755859375</ele></trkpt><trkpt lat="47.40870592370629" lon="8.48904093587771"><ele>495.5</ele></trkpt><trkpt lat="47.408720020670444" lon="8.489172391593456"><ele>496.5</ele></trkpt><trkpt lat="47.40873912861571" lon="8.489346347283572"><ele>499.29998779296875</ele></trkpt><trkpt lat="47.40880850655958" lon="8.489432517904788"><ele>501.5</ele></trkpt><trkpt lat="47.408876097761095" lon="8.489517327863723"><ele>503.0</ele></trkpt><trkpt lat="47.40894547523931" lon="8.4896034989506"><ele>504.5</ele></trkpt><trkpt lat="47.40901395352557" lon="8.48968965234235"><ele>506.0999755859375</ele></trkpt><trkpt lat="47.40909489011392" lon="8.489790627267212"><ele>508.0</ele></trkpt><trkpt lat="47.4091661144048" lon="8.489871534984559"><ele>509.6999816894531</ele></trkpt><trkpt lat="47.40923735080287" lon="8.489951118361205"><ele>511.3999938964844</ele></trkpt><trkpt lat="47.40930947428569" lon="8.490032044239342"><ele>512.8999938964844</ele></trkpt><trkpt lat="47.40938069811091" lon="8.490112952888012"><ele>514.2999877929688</ele></trkpt><trkpt lat="47.40944213792682" lon="8.49018174316734"><ele>515.2999877929688</ele></trkpt><trkpt lat="47.40952347125858" lon="8.490239000413567"><ele>516.1999816894531</ele></trkpt><trkpt lat="47.40957619482651" lon="8.49027714272961"><ele>516.8999938964844</ele></trkpt><trkpt lat="47.40966315334663" lon="8.490309335757047"><ele>517.6999816894531</ele></trkpt><trkpt lat="47.40975009975955" lon="8.490342854056507"><ele>518.5</ele></trkpt><trkpt lat="47.409836158622056" lon="8.490375029388815"><ele>519.1999816894531</ele></trkpt><trkpt lat="47.409893699456006" lon="8.49047686951235"><ele>519.8999938964844</ele></trkpt><trkpt lat="47.4099521394819" lon="8.490578727796674"><ele>520.5999755859375</ele></trkpt><trkpt lat="47.410009691957384" lon="8.490679244045168"><ele>521.0999755859375</ele></trkpt><trkpt lat="47.410067232791334" lon="8.490781084634364"><ele>521.6999816894531</ele></trkpt><trkpt lat="47.41011151205748" lon="8.490857488010079"><ele>522.0999755859375</ele></trkpt><trkpt lat="47.41016433155164" lon="8.490885032340884"><ele>522.3999938964844</ele></trkpt><trkpt lat="47.41025414457545" lon="8.49090005736798"><ele>522.5999755859375</ele></trkpt><trkpt lat="47.41032239049673" lon="8.490813951473683"><ele>522.6999816894531</ele></trkpt><trkpt lat="47.41038974933326" lon="8.490726502146572"><ele>522.6999816894531</ele></trkpt><trkpt lat="47.41038974933326" lon="8.490726502146572"><ele>522.6999816894531</ele></trkpt><trkpt lat="47.410457995254546" lon="8.490640395786613"><ele>522.6999816894531</ele></trkpt><trkpt lat="47.4104998591356" lon="8.49058689456433"><ele>522.7999877929688</ele></trkpt><trkpt lat="47.41057781688869" lon="8.490520855877548"><ele>522.8999938964844</ele></trkpt><trkpt lat="47.410635844338685" lon="8.490470323711634"><ele>523.0999755859375</ele></trkpt><trkpt lat="47.41072342963889" lon="8.490433626342565"><ele>523.3999938964844</ele></trkpt><trkpt lat="47.41080920398235" lon="8.49039821792394"><ele>523.6999816894531</ele></trkpt><trkpt lat="47.41090672975406" lon="8.490356415975839"><ele>524.0999755859375</ele></trkpt><trkpt lat="47.410996759776026" lon="8.490347593091428"><ele>524.3999938964844</ele></trkpt><trkpt lat="47.41108590224758" lon="8.490337427239865"><ele>524.2999877929688</ele></trkpt><trkpt lat="47.41117593226954" lon="8.490328604355454"><ele>524.1999816894531</ele></trkpt><trkpt lat="47.4112659743987" lon="8.49031845619902"><ele>524.2999877929688</ele></trkpt><trkpt lat="47.4113298994489" lon="8.49031176790595"><ele>524.5</ele></trkpt><trkpt lat="47.411412156187" lon="8.490366395562887"><ele>524.6999816894531</ele></trkpt><trkpt lat="47.4114944008179" lon="8.490422348491848"><ele>524.8999938964844</ele></trkpt><trkpt lat="47.41155340708792" lon="8.4904619413428"><ele>525.0999755859375</ele></trkpt><trkpt lat="47.411643388681114" lon="8.49045841768384"><ele>525.3999938964844</ele></trkpt><trkpt lat="47.41173335863277" lon="8.490456219296902"><ele>525.5999755859375</ele></trkpt><trkpt lat="47.411796348169446" lon="8.490453487727791"><ele>525.8999938964844</ele></trkpt><trkpt lat="47.41184970550239" lon="8.490520796272904"><ele>526.0999755859375</ele></trkpt><trkpt lat="47.41185209713876" lon="8.490653353743255"><ele>526.0999755859375</ele></trkpt><trkpt lat="47.411854488775134" lon="8.490785911679268"><ele>526.0999755859375</ele></trkpt><trkpt lat="47.4118559807539" lon="8.49091845145449"><ele>526.0999755859375</ele></trkpt><trkpt lat="47.41185747273266" lon="8.491050991229713"><ele>526.2999877929688</ele></trkpt><trkpt lat="47.41185986390337" lon="8.491183548700064"><ele>526.5999755859375</ele></trkpt><trkpt lat="47.411860938649625" lon="8.491263076197356"><ele>526.6999816894531</ele></trkpt><trkpt lat="47.41181428311393" lon="8.491447668522596"><ele>526.5</ele></trkpt><trkpt lat="47.411738086957484" lon="8.491517717484385"><ele>526.1999816894531</ele></trkpt><trkpt lat="47.41166099207476" lon="8.491587748751044"><ele>525.7999877929688</ele></trkpt><trkpt lat="47.41158479638398" lon="8.491657797712833"><ele>525.5</ele></trkpt><trkpt lat="47.411509511526674" lon="8.491726539563388"><ele>525.2999877929688</ele></trkpt><trkpt lat="47.41143241664395" lon="8.491796570364386"><ele>525.0</ele></trkpt><trkpt lat="47.41135532129556" lon="8.491866600699723"><ele>525.0</ele></trkpt><trkpt lat="47.41127912513912" lon="8.49193664919585"><ele>525.0</ele></trkpt><trkpt lat="47.411202929448336" lon="8.492006696760654"><ele>525.0</ele></trkpt><trkpt lat="47.411126733291894" lon="8.49207674479112"><ele>524.8999938964844</ele></trkpt><trkpt lat="47.41105053713545" lon="8.492146792355925"><ele>524.8999938964844</ele></trkpt><trkpt lat="47.4109344445169" lon="8.492251827847213"><ele>525.0</ele></trkpt><trkpt lat="47.410863547585905" lon="8.49233258003369"><ele>524.8999938964844</ele></trkpt><trkpt lat="47.410791751462966" lon="8.492413314525038"><ele>524.8999938964844</ele></trkpt><trkpt lat="47.41071995487437" lon="8.492494049016386"><ele>524.8999938964844</ele></trkpt><trkpt lat="47.410649057943374" lon="8.492574800737202"><ele>525.0999755859375</ele></trkpt><trkpt lat="47.410577261820436" lon="8.49265553476289"><ele>525.3999938964844</ele></trkpt><trkpt lat="47.410506376996636" lon="8.492734961677343"><ele>525.5999755859375</ele></trkpt><trkpt lat="47.41043547959998" lon="8.492815712932497"><ele>525.7999877929688</ele></trkpt><trkpt lat="47.410363683477044" lon="8.492896446026862"><ele>525.8999938964844</ele></trkpt><trkpt lat="47.410291886888444" lon="8.492977179121226"><ele>526.0999755859375</ele></trkpt><trkpt lat="47.41022098949179" lon="8.493057929445058"><ele>526.1999816894531</ele></trkpt><trkpt lat="47.41014919290319" lon="8.493138662073761"><ele>526.2999877929688</ele></trkpt><trkpt lat="47.41007829550654" lon="8.493219412397593"><ele>526.3999938964844</ele></trkpt><trkpt lat="47.410006498452276" lon="8.493300144560635"><ele>526.5999755859375</ele></trkpt><trkpt lat="47.40993650024757" lon="8.493380912113935"><ele>526.7999877929688</ele></trkpt><trkpt lat="47.40986380400136" lon="8.493461626116186"><ele>527.0</ele></trkpt><trkpt lat="47.40979290660471" lon="8.493542375508696"><ele>527.1999816894531</ele></trkpt><trkpt lat="47.409721109550446" lon="8.493623106740415"><ele>527.3999938964844</ele></trkpt><trkpt lat="47.409650223795325" lon="8.4937025308609"><ele>527.5</ele></trkpt><trkpt lat="47.409578426741064" lon="8.493783261626959"><ele>527.5</ele></trkpt><trkpt lat="47.409517518244684" lon="8.493853607680649"><ele>527.5</ele></trkpt><trkpt lat="47.40947507228702" lon="8.493970695417374"><ele>527.3999938964844</ele></trkpt><trkpt lat="47.40943352598697" lon="8.49408780131489"><ele>527.1999816894531</ele></trkpt><trkpt lat="47.40939107956365" lon="8.494204889051616"><ele>526.8999938964844</ele></trkpt><trkpt lat="47.40934953279793" lon="8.494321994483471"><ele>526.5999755859375</ele></trkpt><trkpt lat="47.40929509233683" lon="8.494471970014274"><ele>526.3999938964844</ele></trkpt><trkpt lat="47.409260691609234" lon="8.494594516698271"><ele>526.1999816894531</ele></trkpt><trkpt lat="47.40922540333122" lon="8.494715720415115"><ele>526.0999755859375</ele></trkpt><trkpt lat="47.40919100260362" lon="8.494838267099112"><ele>526.0999755859375</ele></trkpt><trkpt lat="47.40915570175275" lon="8.494960795622319"><ele>526.0999755859375</ele></trkpt><trkpt lat="47.40912130055949" lon="8.495083341840655"><ele>526.2999877929688</ele></trkpt><trkpt lat="47.409086011815816" lon="8.495204545091838"><ele>526.5999755859375</ele></trkpt><trkpt lat="47.40905250934884" lon="8.495327108539641"><ele>526.5999755859375</ele></trkpt><trkpt lat="47.409016309306026" lon="8.495449618436396"><ele>526.5999755859375</ele></trkpt><trkpt lat="47.408981919288635" lon="8.495570839382708"><ele>526.5</ele></trkpt><trkpt lat="47.408961455803365" lon="8.495644635055214"><ele>526.5999755859375</ele></trkpt><trkpt lat="47.40891097486019" lon="8.495754935778677"><ele>526.7999877929688</ele></trkpt><trkpt lat="47.40886049345136" lon="8.495865236967802"><ele>527.2999877929688</ele></trkpt><trkpt lat="47.40881091170013" lon="8.495975554920733"><ele>527.5999755859375</ele></trkpt><trkpt lat="47.40874023269862" lon="8.496130505111068"><ele>527.5999755859375</ele></trkpt><trkpt lat="47.40867554396391" lon="8.496220647823066"><ele>527.8999938964844</ele></trkpt><trkpt lat="47.40860904427245" lon="8.496312079485506"><ele>528.3999938964844</ele></trkpt><trkpt lat="47.408543455414474" lon="8.496402203571051"><ele>528.5999755859375</ele></trkpt><trkpt lat="47.40847786702216" lon="8.496492327656597"><ele>528.5</ele></trkpt><trkpt lat="47.408412266056985" lon="8.496583776082844"><ele>528.2999877929688</ele></trkpt><trkpt lat="47.40834757685661" lon="8.496673917397857"><ele>528.0999755859375</ele></trkpt><trkpt lat="47.40828018914908" lon="8.49676400469616"><ele>527.8999938964844</ele></trkpt><trkpt lat="47.40821549948305" lon="8.496854146011174"><ele>527.7999877929688</ele></trkpt><trkpt lat="47.40814899886027" lon="8.496945575810969"><ele>527.5999755859375</ele></trkpt><trkpt lat="47.40808341000229" lon="8.49703569803387"><ele>527.5999755859375</ele></trkpt><trkpt lat="47.40803055698052" lon="8.497110173571855"><ele>527.5</ele></trkpt><trkpt lat="47.40795785840601" lon="8.497190879657865"><ele>527.5</ele></trkpt><trkpt lat="47.40788607066497" lon="8.49727027816698"><ele>527.5</ele></trkpt><trkpt lat="47.40781517047435" lon="8.497351019643247"><ele>527.0999755859375</ele></trkpt><trkpt lat="47.40774337016046" lon="8.497431742493063"><ele>526.3999938964844</ele></trkpt><trkpt lat="47.40767248161137" lon="8.497511158231646"><ele>525.5999755859375</ele></trkpt><trkpt lat="47.40761249465868" lon="8.497578865848482"><ele>525.2999877929688</ele></trkpt><trkpt lat="47.407549566589296" lon="8.497673014644533"><ele>525.3999938964844</ele></trkpt><trkpt lat="47.40748573932797" lon="8.497767145279795"><ele>525.6999816894531</ele></trkpt><trkpt lat="47.407421899959445" lon="8.497862600721419"><ele>526.0</ele></trkpt><trkpt lat="47.40735897189006" lon="8.49795674905181"><ele>526.3999938964844</ele></trkpt><trkpt lat="47.40729604335502" lon="8.498050896916538"><ele>526.7999877929688</ele></trkpt><trkpt lat="47.407233115285635" lon="8.498145044781268"><ele>527.1999816894531</ele></trkpt><trkpt lat="47.40719207469374" lon="8.498206503223628"><ele>527.5999755859375</ele></trkpt><trkpt lat="47.407145163975656" lon="8.498319519218057"><ele>528.0</ele></trkpt><trkpt lat="47.407098253723234" lon="8.498432534746826"><ele>528.3999938964844</ele></trkpt><trkpt lat="47.407098253723234" lon="8.498432534746826"><ele>528.3999938964844</ele></trkpt><trkpt lat="47.40705134300515" lon="8.498545550275594"><ele>528.6999816894531</ele></trkpt><trkpt lat="47.40701731434092" lon="8.498627022374421"><ele>528.8999938964844</ele></trkpt><trkpt lat="47.4069784367457" lon="8.498746822122484"><ele>528.5</ele></trkpt><trkpt lat="47.40694045834243" lon="8.498866639565676"><ele>528.0</ele></trkpt><trkpt lat="47.4069024794735" lon="8.498986457008868"><ele>527.6999816894531</ele></trkpt><trkpt lat="47.40686270222068" lon="8.49910623813048"><ele>527.5</ele></trkpt><trkpt lat="47.406823836266994" lon="8.49922471260652"><ele>527.5</ele></trkpt><trkpt lat="47.40678585739806" lon="8.49934452958405"><ele>527.7999877929688</ele></trkpt><trkpt lat="47.406746978871524" lon="8.49946432840079"><ele>528.2999877929688</ele></trkpt><trkpt lat="47.40670810081065" lon="8.499584127217531"><ele>528.5999755859375</ele></trkpt><trkpt lat="47.406670121476054" lon="8.4997039437294"><ele>528.7999877929688</ele></trkpt><trkpt lat="47.406631242483854" lon="8.49982374208048"><ele>529.0</ele></trkpt><trkpt lat="47.406592363957316" lon="8.499943540431559"><ele>529.2999877929688</ele></trkpt><trkpt lat="47.406553484965116" lon="8.500063338316977"><ele>529.6999816894531</ele></trkpt><trkpt lat="47.40651640435681" lon="8.500183172058314"><ele>530.0999755859375</ele></trkpt><trkpt lat="47.4064775374718" lon="8.500301644671708"><ele>530.3999938964844</ele></trkpt><trkpt lat="47.406437758821994" lon="8.500421424396336"><ele>530.5999755859375</ele></trkpt><trkpt lat="47.40639700740576" lon="8.500549134332687"><ele>530.3999938964844</ele></trkpt><trkpt lat="47.40634742099792" lon="8.500659442972392"><ele>530.1999816894531</ele></trkpt><trkpt lat="47.40629872167483" lon="8.500771094113588"><ele>530.0</ele></trkpt><trkpt lat="47.40624913480133" lon="8.500881402753294"><ele>529.6999816894531</ele></trkpt><trkpt lat="47.40620043501258" lon="8.500993053428829"><ele>529.2999877929688</ele></trkpt><trkpt lat="47.40615084813908" lon="8.501103361137211"><ele>528.6999816894531</ele></trkpt><trkpt lat="47.40610214835033" lon="8.501215011812747"><ele>528.0</ele></trkpt><trkpt lat="47.40605346020311" lon="8.501325337216258"><ele>527.2999877929688</ele></trkpt><trkpt lat="47.406003860756755" lon="8.50143696879968"><ele>526.5999755859375</ele></trkpt><trkpt lat="47.40595427341759" lon="8.501547276042402"><ele>526.1999816894531</ele></trkpt><trkpt lat="47.40590647235513" lon="8.501658943481743"><ele>525.8999938964844</ele></trkpt><trkpt lat="47.40585598535836" lon="8.501769232563674"><ele>525.6999816894531</ele></trkpt><trkpt lat="47.40580728510395" lon="8.501880881842226"><ele>525.3999938964844</ele></trkpt><trkpt lat="47.40575769729912" lon="8.501991188153625"><ele>525.0999755859375</ele></trkpt><trkpt lat="47.40569889638573" lon="8.502125159371644"><ele>524.5999755859375</ele></trkpt><trkpt lat="47.40566270099953" lon="8.502246331889182"><ele>524.0</ele></trkpt><trkpt lat="47.405626505147666" lon="8.502367504872382"><ele>523.1999816894531</ele></trkpt><trkpt lat="47.40558846201748" lon="8.502493940293789"><ele>522.3999938964844</ele></trkpt><trkpt lat="47.405576462391764" lon="8.502624870277941"><ele>521.7999877929688</ele></trkpt><trkpt lat="47.405563563574106" lon="8.502755782566965"><ele>521.1999816894531</ele></trkpt><trkpt lat="47.4055515518412" lon="8.50288803735748"><ele>520.5999755859375</ele></trkpt><trkpt lat="47.405537753365934" lon="8.503018931485713"><ele>520.1999816894531</ele></trkpt><trkpt lat="47.40552575374022" lon="8.503149861469865"><ele>519.7999877929688</ele></trkpt><trkpt lat="47.40551777789369" lon="8.503234498668462"><ele>519.3999938964844</ele></trkpt><trkpt lat="47.40548695297912" lon="8.503358427900821"><ele>519.1999816894531</ele></trkpt><trkpt lat="47.40545238368213" lon="8.503498181235045"><ele>519.0999755859375</ele></trkpt><trkpt lat="47.405389450956136" lon="8.503592318855226"><ele>518.7999877929688</ele></trkpt><trkpt lat="47.40532651823014" lon="8.503686456941068"><ele>518.3999938964844</ele></trkpt><trkpt lat="47.405261798296124" lon="8.503779233898968"><ele>518.0999755859375</ele></trkpt><trkpt lat="47.40519886557013" lon="8.503873371053487"><ele>518.0999755859375</ele></trkpt><trkpt lat="47.405135033186525" lon="8.503967490047216"><ele>518.2999877929688</ele></trkpt><trkpt lat="47.40507209999487" lon="8.504061627201736"><ele>518.5999755859375</ele></trkpt><trkpt lat="47.405008267145604" lon="8.504155745729804"><ele>518.6999816894531</ele></trkpt><trkpt lat="47.40494443429634" lon="8.504249864257872"><ele>517.5</ele></trkpt><trkpt lat="47.404886981938034" lon="8.504334835335612"><ele>515.8999938964844</ele></trkpt><trkpt lat="47.404814302455634" lon="8.504412877373397"><ele>516.0</ele></trkpt><trkpt lat="47.40474252263084" lon="8.504490937106311"><ele>517.6999816894531</ele></trkpt><trkpt lat="47.40466894349083" lon="8.504568960983306"><ele>518.6999816894531</ele></trkpt><trkpt lat="47.40459626400843" lon="8.504647002089769"><ele>518.6999816894531</ele></trkpt><trkpt lat="47.40452448325232" lon="8.504725061357021"><ele>518.6999816894531</ele></trkpt><trkpt lat="47.40445090411231" lon="8.504803083837032"><ele>518.8999938964844</ele></trkpt><trkpt lat="47.40437822416425" lon="8.504881124943495"><ele>519.1999816894531</ele></trkpt><trkpt lat="47.40430644387379" lon="8.504959183279425"><ele>519.5</ele></trkpt><trkpt lat="47.40424082381651" lon="8.505051938816905"><ele>519.8999938964844</ele></trkpt><trkpt lat="47.40417701518163" lon="8.505143405403942"><ele>520.0999755859375</ele></trkpt><trkpt lat="47.40411229431629" lon="8.505236178636551"><ele>520.2999877929688</ele></trkpt><trkpt lat="47.404013846069574" lon="8.505377298220992"><ele>520.5</ele></trkpt><trkpt lat="47.40393131645396" lon="8.505547883920372"><ele>521.0999755859375</ele></trkpt><trkpt lat="47.40388541482389" lon="8.50574570056051"><ele>521.1999816894531</ele></trkpt><trkpt lat="47.4038834576495" lon="8.50595764676109"><ele>520.5</ele></trkpt><trkpt lat="47.40389393782243" lon="8.506089022383094"><ele>520.6999816894531</ele></trkpt><trkpt lat="47.40390696935356" lon="8.506236348766834"><ele>521.5</ele></trkpt><trkpt lat="47.40395095711574" lon="8.506343222688884"><ele>520.7999877929688</ele></trkpt><trkpt lat="47.4040314075537" lon="8.506397831719369"><ele>521.0</ele></trkpt><trkpt lat="47.40411349199712" lon="8.506372978910804"><ele>522.0999755859375</ele></trkpt><trkpt lat="47.40417731413618" lon="8.506280188914388"><ele>522.1999816894531</ele></trkpt><trkpt lat="47.40424112416804" lon="8.506188723724335"><ele>522.1999816894531</ele></trkpt><trkpt lat="47.4043040224351" lon="8.506098564714193"><ele>522.2999877929688</ele></trkpt><trkpt lat="47.404393203090876" lon="8.506084452848881"><ele>522.0</ele></trkpt><trkpt lat="47.404448160436004" lon="8.506074954289943"><ele>521.8999938964844</ele></trkpt><trkpt lat="47.404481197241694" lon="8.506198834162205"><ele>522.0999755859375</ele></trkpt><trkpt lat="47.40451424615458" lon="8.506321389693767"><ele>522.3999938964844</ele></trkpt><trkpt lat="47.404547282960266" lon="8.50644526956603"><ele>522.6999816894531</ele></trkpt><trkpt lat="47.40458033187315" lon="8.506567825563252"><ele>523.0999755859375</ele></trkpt><trkpt lat="47.40461246902123" lon="8.506691687740386"><ele>523.5</ele></trkpt><trkpt lat="47.4046464166604" lon="8.506814261898398"><ele>523.8999938964844</ele></trkpt><trkpt lat="47.404679453000426" lon="8.506938142701983"><ele>524.2999877929688</ele></trkpt><trkpt lat="47.40471250098199" lon="8.507060698699206"><ele>524.7999877929688</ele></trkpt><trkpt lat="47.40474553685635" lon="8.507184579968452"><ele>525.2999877929688</ele></trkpt><trkpt lat="47.40477768564597" lon="8.507307118270546"><ele>525.6999816894531</ele></trkpt><trkpt lat="47.40482202079147" lon="8.507473624311388"><ele>526.1999816894531</ele></trkpt><trkpt lat="47.40487681142986" lon="8.507579393219203"><ele>526.5</ele></trkpt><trkpt lat="47.40491923224181" lon="8.507661065552384"><ele>526.6999816894531</ele></trkpt><trkpt lat="47.40499410266057" lon="8.507735439576209"><ele>527.0999755859375</ele></trkpt><trkpt lat="47.40506898518652" lon="8.507808489259332"><ele>527.5999755859375</ele></trkpt><trkpt lat="47.40514295594767" lon="8.507882845588028"><ele>528.3999938964844</ele></trkpt><trkpt lat="47.40521783847362" lon="8.507955895736814"><ele>529.2999877929688</ele></trkpt><trkpt lat="47.40530341444537" lon="8.508039759937674"><ele>530.1999816894531</ele></trkpt><trkpt lat="47.40536823263392" lon="8.50813115760684"><ele>531.0</ele></trkpt><trkpt lat="47.40540908742696" lon="8.508187625557184"><ele>531.5999755859375</ele></trkpt><trkpt lat="47.40547044714913" lon="8.508361101150513"><ele>532.0999755859375</ele></trkpt><trkpt lat="47.40547044714913" lon="8.508361101150513"><ele>532.0999755859375</ele></trkpt><trkpt lat="47.40548543352634" lon="8.508491246961057"><ele>532.5999755859375</ele></trkpt><trkpt lat="47.40549546526745" lon="8.508573595434427"><ele>533.0999755859375</ele></trkpt><trkpt lat="47.40548884309828" lon="8.508705957327038"><ele>533.5999755859375</ele></trkpt><trkpt lat="47.40548132127151" lon="8.508838301058859"><ele>534.1999816894531</ele></trkpt><trkpt lat="47.405474711209536" lon="8.508969338145107"><ele>534.6999816894531</ele></trkpt><trkpt lat="47.40546718938276" lon="8.509101681876928"><ele>535.2999877929688</ele></trkpt><trkpt lat="47.40546146547422" lon="8.509234061930329"><ele>536.0</ele></trkpt><trkpt lat="47.40545188682154" lon="8.509394187945873"><ele>536.5999755859375</ele></trkpt><trkpt lat="47.405470482073724" lon="8.509523082058877"><ele>536.8999938964844</ele></trkpt><trkpt lat="47.405489963945" lon="8.509653318673372"><ele>537.0999755859375</ele></trkpt><trkpt lat="47.40550945792347" lon="8.509782230481505"><ele>537.5</ele></trkpt><trkpt lat="47.40552804013714" lon="8.509912449400872"><ele>538.2999877929688</ele></trkpt><trkpt lat="47.40554753364995" lon="8.510041361674666"><ele>538.8999938964844</ele></trkpt><trkpt lat="47.40556611586362" lon="8.510171580594033"><ele>539.2999877929688</ele></trkpt><trkpt lat="47.40557880746201" lon="8.5102579575032"><ele>539.3999938964844</ele></trkpt><trkpt lat="47.405627239029855" lon="8.510370227973908"><ele>539.2999877929688</ele></trkpt><trkpt lat="47.405675682704896" lon="8.510481173638254"><ele>539.1999816894531</ele></trkpt><trkpt lat="47.40572411427274" lon="8.510593444574624"><ele>539.1999816894531</ele></trkpt><trkpt lat="47.40577255748212" lon="8.510704390704632"><ele>539.0999755859375</ele></trkpt><trkpt lat="47.405820089392364" lon="8.510816643480211"><ele>539.1999816894531</ele></trkpt><trkpt lat="47.405869419686496" lon="8.510928933043033"><ele>539.5</ele></trkpt><trkpt lat="47.40593104576692" lon="8.511073268949986"><ele>539.7999877929688</ele></trkpt><trkpt lat="47.40599221456796" lon="8.511169897858053"><ele>539.8999938964844</ele></trkpt><trkpt lat="47.406053371261805" lon="8.511267851572484"><ele>539.8999938964844</ele></trkpt><trkpt lat="47.40610833093524" lon="8.511355080641806"><ele>539.8999938964844</ele></trkpt><trkpt lat="47.406191477086395" lon="8.511409753933549"><ele>539.8999938964844</ele></trkpt><trkpt lat="47.40627283649519" lon="8.511463066097349"><ele>539.8999938964844</ele></trkpt><trkpt lat="47.4063550834544" lon="8.511517721228302"><ele>539.8999938964844</ele></trkpt><trkpt lat="47.40643644332886" lon="8.511571033857763"><ele>539.8999938964844</ele></trkpt><trkpt lat="47.406518689822406" lon="8.511625689454377"><ele>539.8999938964844</ele></trkpt><trkpt lat="47.40660094888881" lon="8.511679020244628"><ele>539.8999938964844</ele></trkpt><trkpt lat="47.40668319538236" lon="8.511733676306903"><ele>539.8999938964844</ele></trkpt><trkpt lat="47.40675203828141" lon="8.511778787244111"><ele>539.7999877929688</ele></trkpt><trkpt lat="47.40684089995921" lon="8.511799127329141"><ele>539.5999755859375</ele></trkpt><trkpt lat="47.406941428314894" lon="8.511822352185845"><ele>539.6999816894531</ele></trkpt><trkpt lat="47.40698574157432" lon="8.511796745005995"><ele>539.7999877929688</ele></trkpt><trkpt lat="47.40701448172331" lon="8.511704575270414"><ele>539.7999877929688</ele></trkpt><trkpt lat="47.40700618783012" lon="8.511532159987837"><ele>539.8999938964844</ele></trkpt><trkpt lat="47.40693038422614" lon="8.511461733840406"><ele>539.8999938964844</ele></trkpt><trkpt lat="47.40685368096456" lon="8.511391289997846"><ele>539.8999938964844</ele></trkpt><trkpt lat="47.40677787689492" lon="8.511320864316076"><ele>539.8999938964844</ele></trkpt><trkpt lat="47.40670117363334" lon="8.511250420939177"><ele>539.8999938964844</ele></trkpt><trkpt lat="47.40664143441245" lon="8.511193568818271"><ele>540.0</ele></trkpt><trkpt lat="47.40669572446495" lon="8.511062164325267"><ele>540.0</ele></trkpt><trkpt lat="47.406803890131414" lon="8.511037841904908"><ele>539.8999938964844</ele></trkpt></trkseg></trk></gpx>