<?xml version="1.0" encoding="utf-8"?><gpx version="1.1" creator="MySchweizMobil - https://map.schweizmobil.ch/" xmlns:xsi="http://www.w3.org/2001/XMLSchema-instance" xmlns="http://www.topografix.com/GPX/1/1" xsi:schemaLocation="http://www.topografix.com/GPX/1/1 http://www.topografix.com/GPX/1/1/gpx.xsd"><metadata><name>strecke07</name><bounds minlat="47.3968413034454" minlon="8.511118420399725" maxlat="47.408759586978704" maxlon="8.545239988248795" /></metadata><trk><name>strecke07</name><trkseg><trkpt lat="47.40685712173581" lon="8.511118420399725"><ele>540.0</ele></trkpt><trkpt lat="47.406940292567015" lon="8.511170444544405"><ele>540.0</ele></trkpt><trkpt lat="47.407022576313466" lon="8.511221125721931"><ele>540.0</ele></trkpt><trkpt lat="47.40710574667901" lon="8.51127314986661"><ele>539.8999938964844</ele></trkpt><trkpt lat="47.40723275113851" lon="8.511351231951267"><ele>539.8999938964844</ele></trkpt><trkpt lat="47.407208188436925" lon="8.511477936524898"><ele>539.8999938964844</ele></trkpt><trkpt lat="47.40717608621344" lon="8.51164158852771"><ele>539.8999938964844</ele></trkpt><trkpt lat="47.407211321406066" lon="8.511721797753125"><ele>539.8999938964844</ele></trkpt><trkpt lat="47.40728711290285" lon="8.511793549638242"><ele>540.0</ele></trkpt><trkpt lat="47.407353984657675" lon="8.511857171542943"><ele>540.1999816894531</ele></trkpt><trkpt lat="47.40737098734826" lon="8.511963513679802"><ele>540.7999877929688</ele></trkpt><trkpt lat="47.40735897794366" lon="8.512094446457922"><ele>541.2999877929688</ele></trkpt><trkpt lat="47.40734695550054" lon="8.512226704042405"><ele>541.7999877929688</ele></trkpt><trkpt lat="47.40733494516462" lon="8.512357636354864"><ele>542.2999877929688</ele></trkpt><trkpt lat="47.4073229348287" lon="8.512488568667322"><ele>542.5999755859375</ele></trkpt><trkpt lat="47.407310924492776" lon="8.512619500979781"><ele>542.6999816894531</ele></trkpt><trkpt lat="47.407298002392054" lon="8.512751739937812"><ele>542.6999816894531</ele></trkpt><trkpt lat="47.40728599159047" lon="8.51288267225027"><ele>542.7999877929688</ele></trkpt><trkpt lat="47.407273980323225" lon="8.51301360456273"><ele>542.8999938964844</ele></trkpt><trkpt lat="47.40726196952164" lon="8.513144536875188"><ele>543.0999755859375</ele></trkpt><trkpt lat="47.40724994568154" lon="8.513276793528348"><ele>543.1999816894531</ele></trkpt><trkpt lat="47.40723092481494" lon="8.513484433759004"><ele>543.5</ele></trkpt><trkpt lat="47.407298473175615" lon="8.51357192127034"><ele>543.6999816894531</ele></trkpt><trkpt lat="47.40736510977149" lon="8.513660715892911"><ele>543.7999877929688</ele></trkpt><trkpt lat="47.407432658132166" lon="8.513748203869909"><ele>543.7999877929688</ele></trkpt><trkpt lat="47.407488650642335" lon="8.51382088381797"><ele>543.7999877929688</ele></trkpt><trkpt lat="47.407538902014494" lon="8.513930547982454"><ele>543.6999816894531</ele></trkpt><trkpt lat="47.4075900525786" lon="8.51404023077339"><ele>543.5999755859375</ele></trkpt><trkpt lat="47.40764030395076" lon="8.514149895403534"><ele>543.3999938964844</ele></trkpt><trkpt lat="47.40767381293699" lon="8.514222122263163"><ele>543.0999755859375</ele></trkpt><trkpt lat="47.407695999369025" lon="8.514351095538586"><ele>542.6999816894531</ele></trkpt><trkpt lat="47.407718198373914" lon="8.514478744473308"><ele>542.1999816894531</ele></trkpt><trkpt lat="47.40774038480595" lon="8.514607717748731"><ele>541.6999816894531</ele></trkpt><trkpt lat="47.407762583345175" lon="8.514735366683453"><ele>541.0999755859375</ele></trkpt><trkpt lat="47.40778476931155" lon="8.514864340424538"><ele>540.5</ele></trkpt><trkpt lat="47.407806967850775" lon="8.514991989824921"><ele>539.8999938964844</ele></trkpt><trkpt lat="47.40782742900774" lon="8.515112978871912"><ele>539.3999938964844</ele></trkpt><trkpt lat="47.40787767898291" lon="8.51522264489904"><ele>538.8999938964844</ele></trkpt><trkpt lat="47.40792791638523" lon="8.515333636198193"><ele>538.5</ele></trkpt><trkpt lat="47.40797816636041" lon="8.515443302690983"><ele>538.1999816894531</ele></trkpt><trkpt lat="47.408027516677976" lon="8.515552951488644"><ele>538.0999755859375</ele></trkpt><trkpt lat="47.40807776665315" lon="8.515662618447095"><ele>538.0</ele></trkpt><trkpt lat="47.40812800405547" lon="8.515773610211909"><ele>537.8999938964844</ele></trkpt><trkpt lat="47.40816238662228" lon="8.515848506707698"><ele>537.8999938964844</ele></trkpt><trkpt lat="47.40820537926629" lon="8.51596465241164"><ele>537.8999938964844</ele></trkpt><trkpt lat="47.40824836026877" lon="8.516082123387605"><ele>538.0</ele></trkpt><trkpt lat="47.40829045372084" lon="8.516198251862079"><ele>538.0</ele></trkpt><trkpt lat="47.408329060766846" lon="8.51630238443613"><ele>538.0</ele></trkpt><trkpt lat="47.40836570877582" lon="8.516423702705652"><ele>538.0999755859375</ele></trkpt><trkpt lat="47.408401457127184" lon="8.516545003280044"><ele>538.1999816894531</ele></trkpt><trkpt lat="47.408438104670495" lon="8.516666322015226"><ele>538.2999877929688</ele></trkpt><trkpt lat="47.408474752213806" lon="8.516787640750408"><ele>538.2999877929688</ele></trkpt><trkpt lat="47.40851050009951" lon="8.516908941790462"><ele>538.2999877929688</ele></trkpt><trkpt lat="47.408547159750015" lon="8.517028936184943"><ele>538.2999877929688</ele></trkpt><trkpt lat="47.408583806827664" lon="8.517150255385786"><ele>538.1999816894531</ele></trkpt><trkpt lat="47.40861694328487" lon="8.517262228764594"><ele>538.0</ele></trkpt><trkpt lat="47.408627410419285" lon="8.517393618356436"><ele>538.0</ele></trkpt><trkpt lat="47.4086378775537" lon="8.51752500841394"><ele>537.7999877929688</ele></trkpt><trkpt lat="47.40864834468812" lon="8.517656398005784"><ele>537.5</ele></trkpt><trkpt lat="47.40865879924968" lon="8.51778911286965"><ele>537.0999755859375</ele></trkpt><trkpt lat="47.408669265918434" lon="8.517920502461493"><ele>536.5999755859375</ele></trkpt><trkpt lat="47.408681345172226" lon="8.518071800470352"><ele>535.8999938964844</ele></trkpt><trkpt lat="47.40865946048871" lon="8.518199884798378"><ele>535.2999877929688</ele></trkpt><trkpt lat="47.40863756323233" lon="8.518329293932766"><ele>534.6999816894531</ele></trkpt><trkpt lat="47.4086165772751" lon="8.51845739595592"><ele>533.8999938964844</ele></trkpt><trkpt lat="47.408594691660255" lon="8.518585480283946"><ele>533.2999877929688</ele></trkpt><trkpt lat="47.40857279393822" lon="8.518714888487011"><ele>532.5</ele></trkpt><trkpt lat="47.40853852359578" lon="8.518916922621429"><ele>531.5999755859375</ele></trkpt><trkpt lat="47.40855168690905" lon="8.519048367161304"><ele>530.5999755859375</ele></trkpt><trkpt lat="47.40857140067965" lon="8.519248845987022"><ele>529.5</ele></trkpt><trkpt lat="47.4085972039029" lon="8.519375246949494"><ele>528.6999816894531</ele></trkpt><trkpt lat="47.40862389374524" lon="8.51950299134478"><ele>528.0999755859375</ele></trkpt><trkpt lat="47.408649696502835" lon="8.519629392307252"><ele>527.2999877929688</ele></trkpt><trkpt lat="47.408675499260426" lon="8.519755793735385"><ele>526.5</ele></trkpt><trkpt lat="47.40870128944516" lon="8.51988351996988"><ele>525.7999877929688</ele></trkpt><trkpt lat="47.40872799092904" lon="8.520009940024465"><ele>525.1999816894531</ele></trkpt><trkpt lat="47.408743460197" lon="8.520087105687708"><ele>524.6999816894531</ele></trkpt><trkpt lat="47.408759586978704" lon="8.520286187995225"><ele>524.0999755859375</ele></trkpt><trkpt lat="47.40873858705163" lon="8.52041561435908"><ele>523.7999877929688</ele></trkpt><trkpt lat="47.408718497958034" lon="8.520543734543025"><ele>523.6999816894531</ele></trkpt><trkpt lat="47.40870227944106" lon="8.520642782561481"><ele>523.5</ele></trkpt><trkpt lat="47.408646440599114" lon="8.520746325608343"><ele>523.3999938964844</ele></trkpt><trkpt lat="47.408590589184314" lon="8.520851193461567"><ele>523.2999877929688</ele></trkpt><trkpt lat="47.40853474987671" lon="8.520954736042768"><ele>523.3999938964844</ele></trkpt><trkpt lat="47.40847891103476" lon="8.521058278623968"><ele>523.3999938964844</ele></trkpt><trkpt lat="47.40842307172716" lon="8.521161820739508"><ele>523.3999938964844</ele></trkpt><trkpt lat="47.408367219846696" lon="8.52126668766141"><ele>523.5</ele></trkpt><trkpt lat="47.408312279731035" lon="8.521370247472078"><ele>523.5</ele></trkpt><trkpt lat="47.40825643995777" lon="8.521473789121956"><ele>523.5</ele></trkpt><trkpt lat="47.40820058807731" lon="8.521578655112535"><ele>523.5</ele></trkpt><trkpt lat="47.40812552720308" lon="8.521717580966651"><ele>523.5</ele></trkpt><trkpt lat="47.40806168038398" lon="8.521811684127897"><ele>523.5999755859375</ele></trkpt><trkpt lat="47.40799873275682" lon="8.521905804984272"><ele>523.6999816894531</ele></trkpt><trkpt lat="47.407934898044914" lon="8.521998582873493"><ele>523.6999816894531</ele></trkpt><trkpt lat="47.407871949952096" lon="8.522092703264207"><ele>523.8999938964844</ele></trkpt><trkpt lat="47.40789012098685" lon="8.522120100446045"><ele>523.7799987792969</ele></trkpt><trkpt lat="47.407860120758414" lon="8.522160100284964"><ele>523.8999938964844</ele></trkpt><trkpt lat="47.40776012092829" lon="8.52232010057196"><ele>524.0099792480469</ele></trkpt><trkpt lat="47.40766012109816" lon="8.52247010031715"><ele>524.0899963378906</ele></trkpt><trkpt lat="47.407520120963454" lon="8.52266010036692"><ele>524.219970703125</ele></trkpt><trkpt lat="47.40743012120947" lon="8.522800100501627"><ele>524.2699890136719</ele></trkpt><trkpt lat="47.40734012098983" lon="8.522910100407898"><ele>524.3299865722656</ele></trkpt><trkpt lat="47.40723012108356" lon="8.523050100542605"><ele>524.5399780273438</ele></trkpt><trkpt lat="47.407160121016204" lon="8.523140100762248"><ele>524.6299743652344</ele></trkpt><trkpt lat="47.40692012105137" lon="8.523370100650936"><ele>524.3099975585938</ele></trkpt><trkpt lat="47.406820121221244" lon="8.523460100404918"><ele>523.989990234375</ele></trkpt><trkpt lat="47.406740121077746" lon="8.523520100396127"><ele>523.5799865722656</ele></trkpt><trkpt lat="47.40656012063846" lon="8.523710100445896"><ele>522.6499938964844</ele></trkpt><trkpt lat="47.4063501204364" lon="8.52391010010615"><ele>521.5399780273438</ele></trkpt><trkpt lat="47.40610012039542" lon="8.524150099605322"><ele>520.2799987792969</ele></trkpt><trkpt lat="47.40582011966035" lon="8.5244000996463"><ele>518.7499694824219</ele></trkpt><trkpt lat="47.40566011983901" lon="8.524560099467635"><ele>517.9399719238281</ele></trkpt><trkpt lat="47.40547011932358" lon="8.524750099051744"><ele>516.8199768066406</ele></trkpt><trkpt lat="47.40538011910394" lon="8.524860098958015"><ele>516.3299865722656</ele></trkpt><trkpt lat="47.40527011919767" lon="8.524970098864287"><ele>515.8899841308594</ele></trkpt><trkpt lat="47.40513011906296" lon="8.525100098922849"><ele>515.2799987792969</ele></trkpt><trkpt lat="47.40505011891946" lon="8.52519009867683"><ele>514.969970703125</ele></trkpt><trkpt lat="47.40496011916548" lon="8.525260098744184"><ele>514.5999755859375</ele></trkpt><trkpt lat="47.404950119089335" lon="8.525280098896474"><ele>514.5799865722656</ele></trkpt><trkpt lat="47.4048401187174" lon="8.525350098963827"><ele>514.4399719238281</ele></trkpt><trkpt lat="47.404760119039565" lon="8.525420098565519"><ele>514.1599731445312</ele></trkpt><trkpt lat="47.40469011897221" lon="8.525470098946244"><ele>514.0199890136719</ele></trkpt><trkpt lat="47.404630118981004" lon="8.52555009862408"><ele>514.0199890136719</ele></trkpt><trkpt lat="47.40456011891365" lon="8.525640098843724"><ele>513.719970703125</ele></trkpt><trkpt lat="47.40446011861786" lon="8.525820098351687"><ele>513.0699768066406</ele></trkpt><trkpt lat="47.40439011855051" lon="8.525950098410249"><ele>512.5899963378906</ele></trkpt><trkpt lat="47.40431011840701" lon="8.526120098307729"><ele>512.0899963378906</ele></trkpt><trkpt lat="47.40407011797652" lon="8.526640098076314"><ele>510.3399963378906</ele></trkpt><trkpt lat="47.40400011790916" lon="8.526810097973794"><ele>509.7699890136719</ele></trkpt><trkpt lat="47.40389011753723" lon="8.52710009785369"><ele>508.8599853515625</ele></trkpt><trkpt lat="47.403770117554814" lon="8.527450097724795"><ele>508.3699951171875</ele></trkpt><trkpt lat="47.40367011772469" lon="8.527710097841918"><ele>508.5299987792969</ele></trkpt><trkpt lat="47.40364011749625" lon="8.527760097756982"><ele>508.6299743652344</ele></trkpt><trkpt lat="47.40359011758119" lon="8.527830097824335"><ele>508.5799865722656</ele></trkpt><trkpt lat="47.40355011774227" lon="8.527960097882897"><ele>508.1199951171875</ele></trkpt><trkpt lat="47.40347011713311" lon="8.528190097305924"><ele>507.03997802734375</ele></trkpt><trkpt lat="47.40345011744648" lon="8.528210097458214"><ele>506.92999267578125</ele></trkpt><trkpt lat="47.40340011706576" lon="8.528290097601712"><ele>506.6499938964844</ele></trkpt><trkpt lat="47.40336011722684" lon="8.52833009744063"><ele>506.5</ele></trkpt><trkpt lat="47.403350117150694" lon="8.52835009759292"><ele>506.41998291015625</ele></trkpt><trkpt lat="47.403330116998404" lon="8.528390097431839"><ele>506.239990234375</ele></trkpt><trkpt lat="47.40332011692226" lon="8.528430097270757"><ele>505.9499816894531</ele></trkpt><trkpt lat="47.40330011676997" lon="8.528600097168237"><ele>504.1399841308594</ele></trkpt><trkpt lat="47.403290116693825" lon="8.528670096769929"><ele>503.42999267578125</ele></trkpt><trkpt lat="47.40316011523828" lon="8.529220095835626"><ele>496.91998291015625</ele></trkpt><trkpt lat="47.40314011508599" lon="8.529320095665753"><ele>495.9599914550781</ele></trkpt><trkpt lat="47.40314011462033" lon="8.529410095419735"><ele>495.17999267578125</ele></trkpt><trkpt lat="47.403180114459246" lon="8.529480095021427"><ele>493.969970703125</ele></trkpt><trkpt lat="47.40321011422202" lon="8.529540095012635"><ele>493.1999816894531</ele></trkpt><trkpt lat="47.40323011437431" lon="8.529600095003843"><ele>492.3999938964844</ele></trkpt><trkpt lat="47.40325011406094" lon="8.52968009468168"><ele>491.30999755859375</ele></trkpt><trkpt lat="47.40326011367142" lon="8.529750094749033"><ele>490.219970703125</ele></trkpt><trkpt lat="47.40326011367142" lon="8.52983009442687"><ele>489.3799743652344</ele></trkpt><trkpt lat="47.40315011329949" lon="8.529900094494224"><ele>488.80999755859375</ele></trkpt><trkpt lat="47.40301011316478" lon="8.529990094248205"><ele>487.8599853515625</ele></trkpt><trkpt lat="47.40292011294514" lon="8.530040094163269"><ele>487.219970703125</ele></trkpt><trkpt lat="47.402890113182366" lon="8.530050094239414"><ele>487.0699768066406</ele></trkpt><trkpt lat="47.40277011273429" lon="8.530070093926042"><ele>486.5699768066406</ele></trkpt><trkpt lat="47.402700112666935" lon="8.53011009376496"><ele>486.3499755859375</ele></trkpt><trkpt lat="47.402700112666935" lon="8.53011009376496"><ele>486.3499755859375</ele></trkpt><trkpt lat="47.40269011305645" lon="8.53011009376496"><ele>486.1299743652344</ele></trkpt><trkpt lat="47.402510112617165" lon="8.530230093747377"><ele>485.3299865722656</ele></trkpt><trkpt lat="47.402300112415105" lon="8.530350093729794"><ele>484.719970703125</ele></trkpt><trkpt lat="47.4022401124239" lon="8.530390093568712"><ele>484.7499694824219</ele></trkpt><trkpt lat="47.402110112831" lon="8.530480093788356"><ele>485.1099853515625</ele></trkpt><trkpt lat="47.40194011293352" lon="8.530600093770772"><ele>486.05999755859375</ele></trkpt><trkpt lat="47.40188011294231" lon="8.530650094151497"><ele>486.3899841308594</ele></trkpt><trkpt lat="47.40180011279881" lon="8.530730093829334"><ele>486.65997314453125</ele></trkpt><trkpt lat="47.40169011289254" lon="8.530830094125122"><ele>486.6899719238281</ele></trkpt><trkpt lat="47.40155011275783" lon="8.530960093718022"><ele>486.5199890136719</ele></trkpt><trkpt lat="47.401450112927705" lon="8.53104009386152"><ele>486.469970703125</ele></trkpt><trkpt lat="47.401280112564564" lon="8.531150093767792"><ele>485.97998046875</ele></trkpt><trkpt lat="47.40081011224538" lon="8.531440093647689"><ele>483.6999816894531</ele></trkpt><trkpt lat="47.40074011217803" lon="8.53149009309709"><ele>482.8899841308594</ele></trkpt><trkpt lat="47.40071011194959" lon="8.531520093325526"><ele>482.47998046875</ele></trkpt><trkpt lat="47.40064011188224" lon="8.531550093088299"><ele>482.16998291015625</ele></trkpt><trkpt lat="47.40054011205211" lon="8.531560093164444"><ele>481.969970703125</ele></trkpt><trkpt lat="47.40039011184126" lon="8.531630093231797"><ele>481.66998291015625</ele></trkpt><trkpt lat="47.4003401119262" lon="8.531640093307942"><ele>481.6999816894531</ele></trkpt><trkpt lat="47.40033011185005" lon="8.531640093307942"><ele>481.79998779296875</ele></trkpt><trkpt lat="47.400250111706555" lon="8.531630093231797"><ele>481.8999938964844</ele></trkpt><trkpt lat="47.40022011194378" lon="8.531640093307942"><ele>481.91998291015625</ele></trkpt><trkpt lat="47.40016011195257" lon="8.531650092918426"><ele>481.8699951171875</ele></trkpt><trkpt lat="47.40012011164799" lon="8.531670093070716"><ele>481.7599792480469</ele></trkpt><trkpt lat="47.39993011159822" lon="8.531740093138069"><ele>480.80999755859375</ele></trkpt><trkpt lat="47.399910111445934" lon="8.531750092748553"><ele>480.72998046875</ele></trkpt><trkpt lat="47.399870111607015" lon="8.531740093138069"><ele>480.5699768066406</ele></trkpt><trkpt lat="47.39978011138737" lon="8.531740092672408"><ele>480.3699951171875</ele></trkpt><trkpt lat="47.399700111709535" lon="8.531730093061924"><ele>480.239990234375</ele></trkpt><trkpt lat="47.3995901113376" lon="8.531740092672408"><ele>480.03997802734375</ele></trkpt><trkpt lat="47.399490111507475" lon="8.531750092748553"><ele>479.75</ele></trkpt><trkpt lat="47.39946011127904" lon="8.531790092587471"><ele>479.0</ele></trkpt><trkpt lat="47.39942011097446" lon="8.5318100922741"><ele>478.0199890136719</ele></trkpt><trkpt lat="47.3993701110594" lon="8.531820092350245"><ele>477.1399841308594</ele></trkpt><trkpt lat="47.39933011075482" lon="8.531820092350245"><ele>476.739990234375</ele></trkpt><trkpt lat="47.399260110687464" lon="8.531760092359036"><ele>476.3699951171875</ele></trkpt><trkpt lat="47.399200110696256" lon="8.531760092359036"><ele>476.53997802734375</ele></trkpt><trkpt lat="47.39915011078119" lon="8.53179009212181"><ele>476.4499816894531</ele></trkpt><trkpt lat="47.39915011078119" lon="8.531800092197955"><ele>476.1999816894531</ele></trkpt><trkpt lat="47.39915011078119" lon="8.531800092197955"><ele>476.1999816894531</ele></trkpt><trkpt lat="47.39915011078119" lon="8.53179009212181"><ele>476.4499816894531</ele></trkpt><trkpt lat="47.3991301106289" lon="8.531750092282891"><ele>476.7699890136719</ele></trkpt><trkpt lat="47.399110110942274" lon="8.531700092367828"><ele>477.3799743652344</ele></trkpt><trkpt lat="47.399090110789984" lon="8.531680092215538"><ele>477.7099914550781</ele></trkpt><trkpt lat="47.399050110951066" lon="8.53164009237662"><ele>478.3699951171875</ele></trkpt><trkpt lat="47.399000111501664" lon="8.531590092461556"><ele>479.239990234375</ele></trkpt><trkpt lat="47.398850111756474" lon="8.531460092868656"><ele>480.6999816894531</ele></trkpt><trkpt lat="47.398850111756474" lon="8.531460092868656"><ele>480.6999816894531</ele></trkpt><trkpt lat="47.39884011214599" lon="8.531450093258172"><ele>482.1499938964844</ele></trkpt><trkpt lat="47.398830111604184" lon="8.531570093240589"><ele>481.5699768066406</ele></trkpt><trkpt lat="47.39882011106238" lon="8.532430092338473"><ele>477.3399963378906</ele></trkpt><trkpt lat="47.39883011113852" lon="8.532430092338473"><ele>477.3399963378906</ele></trkpt><trkpt lat="47.39882011106238" lon="8.532430092338473"><ele>477.3399963378906</ele></trkpt><trkpt lat="47.39882011106238" lon="8.532450092490762"><ele>477.3399963378906</ele></trkpt><trkpt lat="47.398710111156106" lon="8.532460092566907"><ele>478.42999267578125</ele></trkpt><trkpt lat="47.39868011139333" lon="8.532470092643052"><ele>478.72998046875</ele></trkpt><trkpt lat="47.39859011117369" lon="8.532500092871487"><ele>479.0999755859375</ele></trkpt><trkpt lat="47.39855011133477" lon="8.532520092558116"><ele>479.219970703125</ele></trkpt><trkpt lat="47.398520111106336" lon="8.53255009278655"><ele>479.3399963378906</ele></trkpt><trkpt lat="47.39847011119127" lon="8.532580092549324"><ele>479.2799987792969</ele></trkpt><trkpt lat="47.3984401114285" lon="8.532610092777759"><ele>479.28997802734375</ele></trkpt><trkpt lat="47.398390111513436" lon="8.532660092692822"><ele>479.239990234375</ele></trkpt><trkpt lat="47.398350111208856" lon="8.53270009253174"><ele>479.1099853515625</ele></trkpt><trkpt lat="47.39831011136994" lon="8.532770092599094"><ele>478.97998046875</ele></trkpt><trkpt lat="47.39827011106536" lon="8.532830092590302"><ele>478.8599853515625</ele></trkpt><trkpt lat="47.398240111302584" lon="8.532900092657655"><ele>478.78997802734375</ele></trkpt><trkpt lat="47.39821011107415" lon="8.532970092725009"><ele>478.6099853515625</ele></trkpt><trkpt lat="47.398180111311376" lon="8.53306009247899"><ele>478.6099853515625</ele></trkpt><trkpt lat="47.39815011108294" lon="8.533150092698634"><ele>478.3299865722656</ele></trkpt><trkpt lat="47.398140111006796" lon="8.533240092452615"><ele>478.3299865722656</ele></trkpt><trkpt lat="47.39813011139631" lon="8.533320092596114"><ele>478.6199951171875</ele></trkpt><trkpt lat="47.39819011138752" lon="8.533410092350096"><ele>478.6199951171875</ele></trkpt><trkpt lat="47.398240111302584" lon="8.533490092493594"><ele>478.6199951171875</ele></trkpt><trkpt lat="47.3982801111415" lon="8.533570092637092"><ele>478.8199768066406</ele></trkpt><trkpt lat="47.398370111361146" lon="8.533760092686862"><ele>478.8199768066406</ele></trkpt><trkpt lat="47.39840011112392" lon="8.533850092440844"><ele>478.8199768066406</ele></trkpt><trkpt lat="47.3984401114285" lon="8.533980092499405"><ele>478.8199768066406</ele></trkpt><trkpt lat="47.39847011119127" lon="8.534100092481822"><ele>478.8199768066406</ele></trkpt><trkpt lat="47.39848011126742" lon="8.534150092396885"><ele>478.8199768066406</ele></trkpt><trkpt lat="47.39848011126742" lon="8.534150092396885"><ele>478.8199768066406</ele></trkpt><trkpt lat="47.39849011134356" lon="8.534210092853755"><ele>478.8199768066406</ele></trkpt><trkpt lat="47.39851011103019" lon="8.534290092531592"><ele>477.989990234375</ele></trkpt><trkpt lat="47.398520110640675" lon="8.534380092285573"><ele>476.5299987792969</ele></trkpt><trkpt lat="47.398520110640675" lon="8.534470092039555"><ele>475.8899841308594</ele></trkpt><trkpt lat="47.39853011071682" lon="8.534510091878474"><ele>475.6999816894531</ele></trkpt><trkpt lat="47.39859011070803" lon="8.5344800921157"><ele>475.5899963378906</ele></trkpt><trkpt lat="47.3986201104708" lon="8.53444009181112"><ele>475.16998291015625</ele></trkpt><trkpt lat="47.39871011022478" lon="8.534350091591477"><ele>474.22998046875</ele></trkpt><trkpt lat="47.398800109978765" lon="8.53427009144798"><ele>473.0999755859375</ele></trkpt><trkpt lat="47.398840109817684" lon="8.534220091532916"><ele>473.0999755859375</ele></trkpt><trkpt lat="47.39887011004612" lon="8.534160091541708"><ele>473.1499938964844</ele></trkpt><trkpt lat="47.39895011018962" lon="8.533970091491938"><ele>473.0199890136719</ele></trkpt><trkpt lat="47.39898010995239" lon="8.533920091576874"><ele>472.6999816894531</ele></trkpt><trkpt lat="47.39902010979131" lon="8.53387009166181"><ele>472.29998779296875</ele></trkpt><trkpt lat="47.399030109867454" lon="8.533850091509521"><ele>472.1899719238281</ele></trkpt><trkpt lat="47.3990401099436" lon="8.533840091433376"><ele>472.0699768066406</ele></trkpt><trkpt lat="47.39907010970637" lon="8.533820091281086"><ele>471.8899841308594</ele></trkpt><trkpt lat="47.39909010985866" lon="8.533800091594458"><ele>471.6899719238281</ele></trkpt><trkpt lat="47.399160109460354" lon="8.533780091442168"><ele>471.28997802734375</ele></trkpt><trkpt lat="47.399290109518915" lon="8.533900090958923"><ele>470.4599914550781</ele></trkpt><trkpt lat="47.399330109357834" lon="8.533960090950131"><ele>470.22998046875</ele></trkpt><trkpt lat="47.399460109416395" lon="8.533960090950131"><ele>469.8699951171875</ele></trkpt><trkpt lat="47.39955010917038" lon="8.533990091178566"><ele>469.66998291015625</ele></trkpt><trkpt lat="47.39991010911763" lon="8.53419009083882"><ele>469.3599853515625</ele></trkpt><trkpt lat="47.40008010901511" lon="8.534290091134608"><ele>469.03997802734375</ele></trkpt><trkpt lat="47.40013010893017" lon="8.534320090897381"><ele>469.0899963378906</ele></trkpt><trkpt lat="47.40017010923475" lon="8.534350091125816"><ele>469.17999267578125</ele></trkpt><trkpt lat="47.40017010923475" lon="8.534440090879798"><ele>469.0</ele></trkpt><trkpt lat="47.40017010923475" lon="8.534520091023296"><ele>468.79998779296875</ele></trkpt><trkpt lat="47.400140109006315" lon="8.534690090920776"><ele>468.5999755859375</ele></trkpt><trkpt lat="47.40009010909125" lon="8.535000090952963"><ele>468.3199768066406</ele></trkpt><trkpt lat="47.40007010893896" lon="8.535110090859234"><ele>468.1899719238281</ele></trkpt><trkpt lat="47.40005010878667" lon="8.535170090850443"><ele>468.17999267578125</ele></trkpt><trkpt lat="47.400010108947754" lon="8.53527009068057"><ele>468.0999755859375</ele></trkpt><trkpt lat="47.399970109108835" lon="8.535410090815276"><ele>468.0199890136719</ele></trkpt><trkpt lat="47.40004010871053" lon="8.535570090636611"><ele>467.66998291015625</ele></trkpt><trkpt lat="47.40011010877788" lon="8.535720090381801"><ele>467.2499694824219</ele></trkpt><trkpt lat="47.400140108540654" lon="8.535790090449154"><ele>467.1299743652344</ele></trkpt><trkpt lat="47.40028010867536" lon="8.536050090566278"><ele>466.739990234375</ele></trkpt><trkpt lat="47.400310108438134" lon="8.536110090557486"><ele>466.719970703125</ele></trkpt><trkpt lat="47.40032010851428" lon="8.536130090709776"><ele>466.66998291015625</ele></trkpt><trkpt lat="47.40037010842934" lon="8.536200090311468"><ele>466.6099853515625</ele></trkpt><trkpt lat="47.40045010857284" lon="8.536360090598464"><ele>466.1999816894531</ele></trkpt><trkpt lat="47.40053010825068" lon="8.536530090495944"><ele>465.7599792480469</ele></trkpt><trkpt lat="47.40055010840297" lon="8.536580090411007"><ele>465.6199951171875</ele></trkpt><trkpt lat="47.40058010816574" lon="8.536620090249926"><ele>465.4599914550781</ele></trkpt><trkpt lat="47.400610108394176" lon="8.536660090088844"><ele>465.3499755859375</ele></trkpt><trkpt lat="47.400650108233094" lon="8.536720090080053"><ele>465.2099914550781</ele></trkpt><trkpt lat="47.40068010846153" lon="8.536790090147406"><ele>465.0199890136719</ele></trkpt><trkpt lat="47.4007101082243" lon="8.536850090138614"><ele>464.8699951171875</ele></trkpt><trkpt lat="47.4007101082243" lon="8.536850090138614"><ele>464.8699951171875</ele></trkpt><trkpt lat="47.4007901083678" lon="8.53701008995995"><ele>464.719970703125</ele></trkpt><trkpt lat="47.400820108130574" lon="8.537100090179592"><ele>464.6999816894531</ele></trkpt><trkpt lat="47.400740107987076" lon="8.53718009032309"><ele>464.6899719238281</ele></trkpt><trkpt lat="47.40083010820672" lon="8.537390090059489"><ele>464.47998046875</ele></trkpt><trkpt lat="47.40089010819793" lon="8.537510090041906"><ele>464.3799743652344</ele></trkpt><trkpt lat="47.40094010811299" lon="8.537610090337694"><ele>464.30999755859375</ele></trkpt><trkpt lat="47.4010001081042" lon="8.53771009016782"><ele>464.219970703125</ele></trkpt><trkpt lat="47.40107010817155" lon="8.537810089997947"><ele>464.1399841308594</ele></trkpt><trkpt lat="47.40115010784939" lon="8.537930089980364"><ele>464.0299987792969</ele></trkpt><trkpt lat="47.40123010799289" lon="8.538060090038925"><ele>464.0099792480469</ele></trkpt><trkpt lat="47.40130010806024" lon="8.538170089945197"><ele>463.92999267578125</ele></trkpt><trkpt lat="47.40138010820374" lon="8.538290089927614"><ele>463.8899841308594</ele></trkpt><trkpt lat="47.401390108279884" lon="8.538300090003759"><ele>463.92999267578125</ele></trkpt><trkpt lat="47.401390108279884" lon="8.538300090003759"><ele>463.92999267578125</ele></trkpt><trkpt lat="47.401520107872784" lon="8.538530089892447"><ele>463.97998046875</ele></trkpt><trkpt lat="47.40162010816857" lon="8.538730090018362"><ele>464.05999755859375</ele></trkpt><trkpt lat="47.401650107931346" lon="8.538700090255588"><ele>464.0099792480469</ele></trkpt><trkpt lat="47.40174010815099" lon="8.538880090229213"><ele>464.2699890136719</ele></trkpt><trkpt lat="47.40187010820955" lon="8.5391900902614"><ele>464.8499755859375</ele></trkpt><trkpt lat="47.40199010819197" lon="8.539460090454668"><ele>465.5099792480469</ele></trkpt><trkpt lat="47.402090108487755" lon="8.539700090419501"><ele>466.1499938964844</ele></trkpt><trkpt lat="47.40206010872498" lon="8.539730090647936"><ele>466.1299743652344</ele></trkpt><trkpt lat="47.40199010865763" lon="8.539790090639144"><ele>466.03997802734375</ele></trkpt><trkpt lat="47.401810108684" lon="8.53995009046048"><ele>466.5699768066406</ele></trkpt><trkpt lat="47.401750108692795" lon="8.540000090375543"><ele>466.79998779296875</ele></trkpt><trkpt lat="47.40170010877773" lon="8.540060090832412"><ele>466.97998046875</ele></trkpt><trkpt lat="47.40166010893881" lon="8.540130090434104"><ele>467.16998291015625</ele></trkpt><trkpt lat="47.4015401089564" lon="8.540370090864599"><ele>467.3899841308594</ele></trkpt><trkpt lat="47.40148010896519" lon="8.540490090847015"><ele>467.4599914550781</ele></trkpt><trkpt lat="47.401410108897835" lon="8.540570090524852"><ele>467.5</ele></trkpt><trkpt lat="47.401414145715535" lon="8.540576858446002"><ele>467.5</ele></trkpt><trkpt lat="47.401353107299656" lon="8.540657736826688"><ele>467.5999755859375</ele></trkpt><trkpt lat="47.40127775585279" lon="8.540730370208621"><ele>467.6999816894531</ele></trkpt><trkpt lat="47.401202416513115" lon="8.54080167831853"><ele>467.79998779296875</ele></trkpt><trkpt lat="47.40112706506625" lon="8.54087431076914"><ele>467.8999938964844</ele></trkpt><trkpt lat="47.40105171315372" lon="8.540946943219751"><ele>468.0</ele></trkpt><trkpt lat="47.40097636124119" lon="8.541019575670362"><ele>468.1999816894531</ele></trkpt><trkpt lat="47.40090102190152" lon="8.541090882848948"><ele>468.5</ele></trkpt><trkpt lat="47.40082566998899" lon="8.541163514368236"><ele>468.6999816894531</ele></trkpt><trkpt lat="47.40075031807646" lon="8.541236146353185"><ele>468.8999938964844</ele></trkpt><trkpt lat="47.40067496616393" lon="8.541308777406812"><ele>469.1999816894531</ele></trkpt><trkpt lat="47.40059962682426" lon="8.541380084119737"><ele>469.5999755859375</ele></trkpt><trkpt lat="47.40052427491173" lon="8.541452715173364"><ele>470.0</ele></trkpt><trkpt lat="47.40044892253354" lon="8.541525345761329"><ele>470.3999938964844</ele></trkpt><trkpt lat="47.40037357015535" lon="8.541597976349294"><ele>470.6999816894531</ele></trkpt><trkpt lat="47.40029823081568" lon="8.541669282130897"><ele>471.0</ele></trkpt><trkpt lat="47.40022287843749" lon="8.541741912253201"><ele>471.1999816894531</ele></trkpt><trkpt lat="47.4001475260593" lon="8.541814541909844"><ele>471.1999816894531</ele></trkpt><trkpt lat="47.400082167238" lon="8.54187678033486"><ele>471.29998779296875</ele></trkpt><trkpt lat="47.400019203312695" lon="8.54197086347267"><ele>471.6999816894531</ele></trkpt><trkpt lat="47.39995622634888" lon="8.542066270951182"><ele>472.5</ele></trkpt><trkpt lat="47.399893262423575" lon="8.54216035362333"><ele>473.3999938964844</ele></trkpt><trkpt lat="47.39983029803261" lon="8.54225443629548"><ele>474.0</ele></trkpt><trkpt lat="47.39976732106879" lon="8.54234984330833"><ele>474.3999938964844</ele></trkpt><trkpt lat="47.399708004202694" lon="8.542438701726496"><ele>474.5999755859375</ele></trkpt><trkpt lat="47.39966177288443" lon="8.542570224963129"><ele>474.5</ele></trkpt><trkpt lat="47.399581376928836" lon="8.54251159215346"><ele>474.0</ele></trkpt><trkpt lat="47.39950006920844" lon="8.542454265523702"><ele>473.0</ele></trkpt><trkpt lat="47.39941967325285" lon="8.542395632714033"><ele>472.0</ele></trkpt><trkpt lat="47.399358024355024" lon="8.542351962067187"><ele>472.29998779296875</ele></trkpt><trkpt lat="47.39929594658315" lon="8.542447386775166"><ele>473.79998779296875</ele></trkpt><trkpt lat="47.399233856238425" lon="8.542544135823846"><ele>474.5999755859375</ele></trkpt><trkpt lat="47.39917177846655" lon="8.542639559600502"><ele>474.79998779296875</ele></trkpt><trkpt lat="47.3991297762841" lon="8.542704929132015"><ele>474.1999816894531</ele></trkpt><trkpt lat="47.39919913932681" lon="8.542788504157215"><ele>472.8999938964844</ele></trkpt><trkpt lat="47.399263157043606" lon="8.54286666912958"><ele>473.0</ele></trkpt><trkpt lat="47.399315192364156" lon="8.542975056916475"><ele>473.8999938964844</ele></trkpt><trkpt lat="47.399360184557736" lon="8.543067401275039"><ele>474.29998779296875</ele></trkpt><trkpt lat="47.39936803886667" lon="8.543186796363443"><ele>474.3999938964844</ele></trkpt><trkpt lat="47.39940919307992" lon="8.543304232414812"><ele>474.6999816894531</ele></trkpt><trkpt lat="47.399451246950775" lon="8.543421687558293"><ele>475.5</ele></trkpt><trkpt lat="47.39949065307155" lon="8.543533788528293"><ele>476.5</ele></trkpt><trkpt lat="47.39948938693851" lon="8.543666243553162"><ele>477.6999816894531</ele></trkpt><trkpt lat="47.39948812080547" lon="8.543798698112369"><ele>478.79998779296875</ele></trkpt><trkpt lat="47.39948685420677" lon="8.543931152671576"><ele>479.8999938964844</ele></trkpt><trkpt lat="47.39948558760807" lon="8.544063607230783"><ele>480.8999938964844</ele></trkpt><trkpt lat="47.39948470052332" lon="8.54415632551536"><ele>481.5999755859375</ele></trkpt><trkpt lat="47.399438086897135" lon="8.544327583163977"><ele>482.1999816894531</ele></trkpt><trkpt lat="47.39934921823442" lon="8.544308516196907"><ele>482.5999755859375</ele></trkpt><trkpt lat="47.39923162152991" lon="8.5442835544236"><ele>482.6999816894531</ele></trkpt><trkpt lat="47.399165008217096" lon="8.544194735120982"><ele>482.3999938964844</ele></trkpt><trkpt lat="47.39909840747714" lon="8.544104591477662"><ele>482.1999816894531</ele></trkpt><trkpt lat="47.39903179369867" lon="8.544015772640705"><ele>482.29998779296875</ele></trkpt><trkpt lat="47.398966079577804" lon="8.54392697289586"><ele>482.3999938964844</ele></trkpt><trkpt lat="47.39889947883785" lon="8.543836830183864"><ele>482.5999755859375</ele></trkpt><trkpt lat="47.39884085766971" lon="8.543758776038885"><ele>482.5999755859375</ele></trkpt><trkpt lat="47.39875202672556" lon="8.543735736981034"><ele>482.5</ele></trkpt><trkpt lat="47.39866410754621" lon="8.543711391743273"><ele>482.0999755859375</ele></trkpt><trkpt lat="47.39857169194147" lon="8.543686953373253"><ele>481.6999816894531</ele></trkpt><trkpt lat="47.39849684480578" lon="8.543612537905574"><ele>481.79998779296875</ele></trkpt><trkpt lat="47.398422884289175" lon="8.543539465870708"><ele>482.0</ele></trkpt><trkpt lat="47.398340018931776" lon="8.543456935789436"><ele>481.8999938964844</ele></trkpt><trkpt lat="47.39831695286557" lon="8.543329278938472"><ele>481.6999816894531</ele></trkpt><trkpt lat="47.398280231282115" lon="8.543124501593411"><ele>481.29998779296875</ele></trkpt><trkpt lat="47.398236150387675" lon="8.543030853383243"><ele>480.79998779296875</ele></trkpt><trkpt lat="47.398166787810624" lon="8.542947279289365"><ele>480.5999755859375</ele></trkpt><trkpt lat="47.398096525110304" lon="8.542863687034696"><ele>480.3999938964844</ele></trkpt><trkpt lat="47.39802271593362" lon="8.542774722445756"><ele>480.0999755859375</ele></trkpt><trkpt lat="47.39797888835892" lon="8.54265458509326"><ele>479.8999938964844</ele></trkpt><trkpt lat="47.397942662239075" lon="8.54268032964319"><ele>480.0</ele></trkpt><trkpt lat="47.39786965120584" lon="8.542601980268955"><ele>480.3999938964844</ele></trkpt><trkpt lat="47.39779753936455" lon="8.542523649986833"><ele>480.8999938964844</ele></trkpt><trkpt lat="47.39772452786565" lon="8.54244530107826"><ele>481.5</ele></trkpt><trkpt lat="47.39766665361822" lon="8.54238316277042"><ele>482.0</ele></trkpt><trkpt lat="47.39762278785929" lon="8.542266999837011"><ele>482.1999816894531</ele></trkpt><trkpt lat="47.39757013088092" lon="8.542129458859563"><ele>482.29998779296875</ele></trkpt><trkpt lat="47.397489950060844" lon="8.542048313189298"><ele>482.3999938964844</ele></trkpt><trkpt lat="47.397404892835766" lon="8.54200680879876"><ele>482.3999938964844</ele></trkpt><trkpt lat="47.397319848649204" lon="8.541963980067521"><ele>482.3999938964844</ele></trkpt><trkpt lat="47.39726612903178" lon="8.541937697213143"><ele>482.3999938964844</ele></trkpt><trkpt lat="47.39722103625536" lon="8.541950011160225"><ele>482.3999938964844</ele></trkpt><trkpt lat="47.39715010439977" lon="8.542030676733702"><ele>482.3999938964844</ele></trkpt><trkpt lat="47.397078272886574" lon="8.542111323215067"><ele>482.3999938964844</ele></trkpt><trkpt lat="47.397002793848515" lon="8.542197193019092"><ele>482.5</ele></trkpt><trkpt lat="47.396950494963676" lon="8.54230473889038"><ele>482.3999938964844</ele></trkpt><trkpt lat="47.396874357480556" lon="8.542459481395781"><ele>482.3999938964844</ele></trkpt><trkpt lat="47.396864098962396" lon="8.542591742705554"><ele>482.5</ele></trkpt><trkpt lat="47.39688119990751" lon="8.54268482932821"><ele>482.3999938964844</ele></trkpt><trkpt lat="47.39690830651671" lon="8.542672143317759"><ele>482.29998779296875</ele></trkpt><trkpt lat="47.39688818017021" lon="8.542801551055163"><ele>482.29998779296875</ele></trkpt><trkpt lat="47.39686716720462" lon="8.542929615825415"><ele>482.3999938964844</ele></trkpt><trkpt lat="47.3968413034454" lon="8.543094672262669"><ele>482.6999816894531</ele></trkpt><trkpt lat="47.39686255855486" lon="8.543223612941802"><ele>482.8999938964844</ele></trkpt><trkpt lat="47.39689235109836" lon="8.543400421272963"><ele>483.1999816894531</ele></trkpt><trkpt lat="47.39689108496532" lon="8.543532869312912"><ele>483.5</ele></trkpt><trkpt lat="47.39688981883228" lon="8.543665317352861"><ele>483.6999816894531</ele></trkpt><trkpt lat="47.39688855223358" lon="8.54379776539281"><ele>483.8999938964844</ele></trkpt><trkpt lat="47.396887285169214" lon="8.543930213432759"><ele>483.8999938964844</ele></trkpt><trkpt lat="47.39688601810485" lon="8.544062661007047"><ele>483.3999938964844</ele></trkpt><trkpt lat="47.396883990615606" lon="8.544274577870965"><ele>482.6999816894531</ele></trkpt><trkpt lat="47.39691856969148" lon="8.544421017169952"><ele>482.1999816894531</ele></trkpt><trkpt lat="47.39699887577444" lon="8.544488921295851"><ele>481.8999938964844</ele></trkpt><trkpt lat="47.39708676934242" lon="8.544515915680677"><ele>481.5999755859375</ele></trkpt><trkpt lat="47.39718722784892" lon="8.544545820448548"><ele>481.29998779296875</ele></trkpt><trkpt lat="47.397265773266554" lon="8.54460971429944"><ele>481.5</ele></trkpt><trkpt lat="47.39735683333129" lon="8.544681816361845"><ele>482.0</ele></trkpt><trkpt lat="47.39741342701018" lon="8.544783672783524"><ele>482.6999816894531</ele></trkpt><trkpt lat="47.397498317062855" lon="8.544936458114535"><ele>483.0999755859375</ele></trkpt><trkpt lat="47.39758334774524" lon="8.544980615843087"><ele>483.29998779296875</ele></trkpt><trkpt lat="47.39766747923568" lon="8.54502475541085"><ele>483.1999816894531</ele></trkpt><trkpt lat="47.3977525094524" lon="8.545068913605064"><ele>483.0999755859375</ele></trkpt><trkpt lat="47.39783754013479" lon="8.545113071799278"><ele>483.0999755859375</ele></trkpt><trkpt lat="47.39792257035151" lon="8.545157230459154"><ele>483.0999755859375</ele></trkpt><trkpt lat="47.39800670184195" lon="8.545201370492578"><ele>483.0999755859375</ele></trkpt><trkpt lat="47.398080091457814" lon="8.545239988248795"><ele>483.0999755859375</ele></trkpt></trkseg></trk></gpx>